{"type" : "FeatureCollection", "features" : [{"type" : "Feature", "geometry" : {"type":"Point","coordinates":[121.4106421,25.1605403]}, "properties" : {"station_name" : "十三行博物館", "district" : "八里區", "address" : "新北市八里區博物館路200號", "category" : "公務機關-其他", "socket_type" : "80A", "plug_count" : 2, "fee" : "N"}}, {"type" : "Feature", "geometry" : {"type":"Point","coordinates":[121.4000901,25.1466207]}, "properties" : {"station_name" : "八里第一立體停車場", "district" : "八里區", "address" : "新北市八里區舊城路12號", "category" : "公有停車場", "socket_type" : "80A", "plug_count" : 2, "fee" : "N"}}, {"type" : "Feature", "geometry" : {"type":"Point","coordinates":[121.4195706,25.1626259]}, "properties" : {"station_name" : "八里永續教育中心", "district" : "八里區", "address" : "新北市八里區觀海大道36號", "category" : "公務機關-其他", "socket_type" : "80A", "plug_count" : 2, "fee" : "N"}}, {"type" : "Feature", "geometry" : {"type":"Point","coordinates":[121.5029351,25.2551666]}, "properties" : {"station_name" : "三芝中正立體停車場", "district" : "三芝區", "address" : "新北市三芝區中山路二段48-1號", "category" : "公有停車場", "socket_type" : "80A", "plug_count" : 2, "fee" : "N"}}, {"type" : "Feature", "geometry" : {"type":"Point","coordinates":[121.500866,25.258047]}, "properties" : {"station_name" : "三芝遊客中心", "district" : "三芝區", "address" : "新北市三芝區埔頭坑164之2號", "category" : "公務機關-其他", "socket_type" : "80A", "plug_count" : 2, "fee" : "N"}}, {"type" : "Feature", "geometry" : {"type":"Point","coordinates":[121.4969463,25.064469]}, "properties" : {"station_name" : "新北正義國小停車場", "district" : "三重區", "address" : "新北市三重區信義西街31號", "category" : "公有停車場", "socket_type" : "80A", "plug_count" : 2, "fee" : "N"}}, {"type" : "Feature", "geometry" : {"type":"Point","coordinates":[121.4830357,25.061388]}, "properties" : {"station_name" : "三重中山立體停車場", "district" : "三重區", "address" : "新北市三重區新北大道一段7號", "category" : "公有停車場", "socket_type" : "80A", "plug_count" : 4, "fee" : "N"}}, {"type" : "Feature", "geometry" : {"type":"Point","coordinates":[121.488102,25.061486]}, "properties" : {"station_name" : "三重三張地下停車場", "district" : "三重區", "address" : "新北市三重區大智路188號", "category" : "公有停車場", "socket_type" : "80A", "plug_count" : 2, "fee" : "N"}}, {"type" : "Feature", "geometry" : {"type":"Point","coordinates":[121.4899015,25.0780349]}, "properties" : {"station_name" : "三重溪美立體停車場", "district" : "三重區", "address" : "新北市三重區自強路四段55號", "category" : "公有停車場", "socket_type" : "80A", "plug_count" : 2, "fee" : "N"}}, {"type" : "Feature", "geometry" : {"type":"Point","coordinates":[121.4904278,25.0530676]}, "properties" : {"station_name" : "三重玫瑰平面停車場", "district" : "三重區", "address" : "新北市三重區集美街57號", "category" : "公有停車場", "socket_type" : "80A", "plug_count" : 2, "fee" : "N"}}, {"type" : "Feature", "geometry" : {"type":"Point","coordinates":[121.488102,25.061486]}, "properties" : {"station_name" : "二重國中地下停車場", "district" : "三重區", "address" : "新北市三重區忠孝路三段89號B2", "category" : "公有停車場", "socket_type" : "80A", "plug_count" : 4, "fee" : "N"}}, {"type" : "Feature", "geometry" : {"type":"Point","coordinates":[121.492996,25.0717182]}, "properties" : {"station_name" : "三重厚德國小停車場", "district" : "三重區", "address" : "新北市三重區忠孝路一段70號", "category" : "公有停車場", "socket_type" : "32A", "plug_count" : 2, "fee" : "N"}}, {"type" : "Feature", "geometry" : {"type":"Point","coordinates":[121.4946334,25.0807277]}, "properties" : {"station_name" : "三重碧華國小停車場", "district" : "三重區", "address" : "新北市三重區五華街160號", "category" : "公有停車場", "socket_type" : "32A", "plug_count" : 2, "fee" : "N"}}, {"type" : "Feature", "geometry" : {"type":"Point","coordinates":[121.488102,25.061486]}, "properties" : {"station_name" : "三重五常停車場", "district" : "三重區", "address" : "新北市三重區五華街7巷30號B1", "category" : "公有停車場", "socket_type" : "32A", "plug_count" : 2, "fee" : "N"}}, {"type" : "Feature", "geometry" : {"type":"Point","coordinates":[121.488102,25.061486]}, "properties" : {"station_name" : "聯邦公園地下停車場", "district" : "三重區", "address" : "新北市三重區中華路125號B1", "category" : "公有停車場", "socket_type" : "32A", "plug_count" : 2, "fee" : "N"}}, {"type" : "Feature", "geometry" : {"type":"Point","coordinates":[121.488102,25.061486]}, "properties" : {"station_name" : "永福國小地下停車場", "district" : "三重區", "address" : "新北市三重區永福街66號B1", "category" : "公有停車場", "socket_type" : "32A", "plug_count" : 2, "fee" : "N"}}, {"type" : "Feature", "geometry" : {"type":"Point","coordinates":[121.488102,25.061486]}, "properties" : {"station_name" : "正義地下停車場", "district" : "三重區", "address" : "新北市三重區雙園街1號B1", "category" : "公有停車場", "socket_type" : "32A", "plug_count" : 2, "fee" : "N"}}, {"type" : "Feature", "geometry" : {"type":"Point","coordinates":[121.4620648,25.0087474]}, "properties" : {"station_name" : "龍門公園地下停車場", "district" : "三重區", "address" : "新北市三重區公園街32號 平面", "category" : "公有停車場", "socket_type" : "32A", "plug_count" : 2, "fee" : "N"}}, {"type" : "Feature", "geometry" : {"type":"Point","coordinates":[121.4879814,25.0607736]}, "properties" : {"station_name" : "文中小平面停車場", "district" : "三重區", "address" : "新北市三重區新北大道一段159號 (對面停車場)", "category" : "公有停車場", "socket_type" : "32A", "plug_count" : 2, "fee" : "N"}}, {"type" : "Feature", "geometry" : {"type":"Point","coordinates":[121.498533,25.0593061]}, "properties" : {"station_name" : "光興國小停車場", "district" : "三重區", "address" : "新北市三重區正義南路62號", "category" : "公有停車場", "socket_type" : "32A", "plug_count" : 2, "fee" : "N"}}, {"type" : "Feature", "geometry" : {"type":"Point","coordinates":[121.336943,24.8970971]}, "properties" : {"station_name" : "三峽碳中和樂園停車場", "district" : "三峽區", "address" : "新北市三峽區中正路三段262號", "category" : "公有停車場", "socket_type" : "80A", "plug_count" : 2, "fee" : "N"}}, {"type" : "Feature", "geometry" : {"type":"Point","coordinates":[121.3671925,24.9349558]}, "properties" : {"station_name" : "三峽國小停車場", "district" : "三峽區", "address" : "新北市三峽區中山路16號", "category" : "公有停車場", "socket_type" : "32A", "plug_count" : 2, "fee" : "N"}}, {"type" : "Feature", "geometry" : {"type":"Point","coordinates":[121.3766737,24.9410201]}, "properties" : {"station_name" : "台北大學地下停車場", "district" : "三峽區", "address" : "新北市三峽區大學路151號", "category" : "公有停車場", "socket_type" : "32A", "plug_count" : 2, "fee" : "N"}}, {"type" : "Feature", "geometry" : {"type":"Point","coordinates":[121.443348,24.972201]}, "properties" : {"station_name" : "土城延吉停車場", "district" : "土城區", "address" : "新北市土城區德峰街65號", "category" : "公有停車場", "socket_type" : "80A", "plug_count" : 2, "fee" : "N"}}, {"type" : "Feature", "geometry" : {"type":"Point","coordinates":[121.443348,24.972201]}, "properties" : {"station_name" : "土城中州停車場", "district" : "土城區", "address" : "新北市土城區中州路11號", "category" : "公有停車場", "socket_type" : "32A", "plug_count" : 2, "fee" : "N"}}, {"type" : "Feature", "geometry" : {"type":"Point","coordinates":[121.44753,24.9859128]}, "properties" : {"station_name" : "土城裕生立體停車場", "district" : "土城區", "address" : "新北市土城區裕生路106號", "category" : "公有停車場", "socket_type" : "80A", "plug_count" : 2, "fee" : "N"}}, {"type" : "Feature", "geometry" : {"type":"Point","coordinates":[121.4614851,24.9850752]}, "properties" : {"station_name" : "土城金城立體停車場", "district" : "土城區", "address" : "新北市土城區金城路二段266號", "category" : "公有停車場", "socket_type" : "80A/32A", "plug_count" : 2, "fee" : "N"}}, {"type" : "Feature", "geometry" : {"type":"Point","coordinates":[121.4641073,24.9868751]}, "properties" : {"station_name" : "土城永豐停車場", "district" : "土城區", "address" : "新北市土城區立德路113號", "category" : "公有停車場", "socket_type" : "32A", "plug_count" : 2, "fee" : "N"}}, {"type" : "Feature", "geometry" : {"type":"Point","coordinates":[121.443348,24.972201]}, "properties" : {"station_name" : "土城明德停車場", "district" : "土城區", "address" : "新北市土城區延吉街與永豐路交界處", "category" : "公有停車場", "socket_type" : "32A", "plug_count" : 2, "fee" : "N"}}, {"type" : "Feature", "geometry" : {"type":"Point","coordinates":[121.49898,24.999397]}, "properties" : {"station_name" : "捷運南勢角站", "district" : "中和區", "address" : "新北市中和區和平街68號對面", "category" : "捷運站", "socket_type" : "80A", "plug_count" : 2, "fee" : "N"}}, {"type" : "Feature", "geometry" : {"type":"Point","coordinates":[121.4900689,25.0038182]}, "properties" : {"station_name" : "中和環球購物中心", "district" : "中和區", "address" : "新北市中和區中山路三段122號B3,5F", "category" : "賣場", "socket_type" : "80A", "plug_count" : 4, "fee" : "N"}}, {"type" : "Feature", "geometry" : {"type":"Point","coordinates":[121.526439,24.9902137]}, "properties" : {"station_name" : "新北中和國小停車場", "district" : "中和區", "address" : "新北市中和區景平路632-8號B1", "category" : "公有停車場", "socket_type" : "80A", "plug_count" : 4, "fee" : "N"}}, {"type" : "Feature", "geometry" : {"type":"Point","coordinates":[121.4751546,25.0032885]}, "properties" : {"station_name" : "中和民享公園停車場", "district" : "中和區", "address" : "新北市中和區自治街67號B1", "category" : "公有停車場", "socket_type" : "80A", "plug_count" : 2, "fee" : "N"}}, {"type" : "Feature", "geometry" : {"type":"Point","coordinates":[121.4739921,25.0047673]}, "properties" : {"station_name" : "中和民享市場停車場", "district" : "中和區", "address" : "新北市中和區民享街37號B1", "category" : "公有停車場", "socket_type" : "80A", "plug_count" : 2, "fee" : "N"}}, {"type" : "Feature", "geometry" : {"type":"Point","coordinates":[121.4680774,24.9976044]}, "properties" : {"station_name" : "中和民德立體停車場", "district" : "中和區", "address" : "新北市中和區民德路188號", "category" : "公有停車場", "socket_type" : "80A", "plug_count" : 2, "fee" : "N"}}, {"type" : "Feature", "geometry" : {"type":"Point","coordinates":[121.5020578,24.9989109]}, "properties" : {"station_name" : "中和復興大樓停車場", "district" : "中和區", "address" : "新北市中和區南山路236號B1", "category" : "公有停車場", "socket_type" : "80A", "plug_count" : 2, "fee" : "N"}}, {"type" : "Feature", "geometry" : {"type":"Point","coordinates":[121.5052806,24.989903]}, "properties" : {"station_name" : "中和地政事務所", "district" : "中和區", "address" : "新北市中和區復興路278號", "category" : "公務機關-地政", "socket_type" : "32A", "plug_count" : 2, "fee" : "N"}}, {"type" : "Feature", "geometry" : {"type":"Point","coordinates":[121.5011721,24.9978559]}, "properties" : {"station_name" : "中和圓通停車場", "district" : "中和區", "address" : "新北市中和區圓通路369巷33號", "category" : "公有停車場", "socket_type" : "80A", "plug_count" : 2, "fee" : "N"}}, {"type" : "Feature", "geometry" : {"type":"Point","coordinates":[121.5224805,24.9964162]}, "properties" : {"station_name" : "中和秀山停車場", "district" : "中和區", "address" : "新北市中和區自立路15巷12號B1", "category" : "公有停車場", "socket_type" : "32A", "plug_count" : 2, "fee" : "N"}}, {"type" : "Feature", "geometry" : {"type":"Point","coordinates":[121.4831995,25.0012162]}, "properties" : {"station_name" : "民樂立體停車場", "district" : "中和區", "address" : "新北市中和區民樂路65號B1", "category" : "公有停車場", "socket_type" : "32A", "plug_count" : 2, "fee" : "N"}}, {"type" : "Feature", "geometry" : {"type":"Point","coordinates":[121.5027762,25.003711]}, "properties" : {"station_name" : "好市多 中和店", "district" : "中和區", "address" : "新北市中和區中山路二段347號", "category" : "賣場", "socket_type" : "40A", "plug_count" : 4, "fee" : "N"}}, {"type" : "Feature", "geometry" : {"type":"Point","coordinates":[121.4762784,25.0057504]}, "properties" : {"station_name" : "中和環球購物中心_Tesla", "district" : "中和區", "address" : "新北市中和區中山路三段122號", "category" : "賣場", "socket_type" : "40A", "plug_count" : 1, "fee" : "N"}}, {"type" : "Feature", "geometry" : {"type":"Point","coordinates":[121.4393413,25.0836564]}, "properties" : {"station_name" : "五股綜合立體停車場", "district" : "五股區", "address" : "新北市五股區工商路3號", "category" : "公有停車場", "socket_type" : "80A", "plug_count" : 4, "fee" : "N"}}, {"type" : "Feature", "geometry" : {"type":"Point","coordinates":[121.5043343,24.9934181]}, "properties" : {"station_name" : "十分旅遊中心停車場", "district" : "平溪區", "address" : "新北市平溪區南山里南山坪路136號", "category" : "公有停車場", "socket_type" : "80A", "plug_count" : 4, "fee" : "N"}}, {"type" : "Feature", "geometry" : {"type":"Point","coordinates":[121.5200796,24.9982697]}, "properties" : {"station_name" : "永和秀朗樂活停車場", "district" : "永和區", "address" : "新北市永和區民權路1號B1", "category" : "公有停車場", "socket_type" : "80A", "plug_count" : 4, "fee" : "N"}}, {"type" : "Feature", "geometry" : {"type":"Point","coordinates":[121.5174976,25.0022408]}, "properties" : {"station_name" : "永和國小停車場", "district" : "永和區", "address" : "新北市永和區中正路299號B1", "category" : "公有停車場", "socket_type" : "80A", "plug_count" : 4, "fee" : "N"}}, {"type" : "Feature", "geometry" : {"type":"Point","coordinates":[121.5256263,25.0038518]}, "properties" : {"station_name" : "永和福和國中停車場", "district" : "永和區", "address" : "新北市永和區永亨路96號", "category" : "公有停車場", "socket_type" : "80A", "plug_count" : 2, "fee" : "N"}}, {"type" : "Feature", "geometry" : {"type":"Point","coordinates":[121.5057688,25.0096994]}, "properties" : {"station_name" : "永和仁愛公園停車場", "district" : "永和區", "address" : "新北市永和區仁愛路244-1號", "category" : "公有停車場", "socket_type" : "32A", "plug_count" : 2, "fee" : "N"}}, {"type" : "Feature", "geometry" : {"type":"Point","coordinates":[121.519561,25.0123122]}, "properties" : {"station_name" : "網溪國小停車場", "district" : "永和區", "address" : "新北市永和區竹林路79號B1~B3 ", "category" : "公有停車場", "socket_type" : "32A", "plug_count" : 2, "fee" : "N"}}, {"type" : "Feature", "geometry" : {"type":"Point","coordinates":[121.6662074,25.0736815]}, "properties" : {"station_name" : "汐止智興停車場", "district" : "汐止區", "address" : "新北市汐止區忠孝東路1號", "category" : "公有停車場", "socket_type" : "80A", "plug_count" : 4, "fee" : "N"}}, {"type" : "Feature", "geometry" : {"type":"Point","coordinates":[121.7029388,24.9371512]}, "properties" : {"station_name" : "坪林水柳腳停車場", "district" : "坪林區", "address" : "新北市坪林區水柳腳34-1號", "category" : "公有停車場", "socket_type" : "80A", "plug_count" : 8, "fee" : "N"}}, {"type" : "Feature", "geometry" : {"type":"Point","coordinates":[121.4597259,25.0121418]}, "properties" : {"station_name" : "板橋高中停車場", "district" : "板橋區", "address" : "新北市板橋區文化路一段25號", "category" : "公有停車場", "socket_type" : "32A", "plug_count" : 2, "fee" : "N"}}, {"type" : "Feature", "geometry" : {"type":"Point","coordinates":[121.4623465,25.0151621]}, "properties" : {"station_name" : "板橋國小停車場", "district" : "板橋區", "address" : "新北市板橋區文化路一段23號B1", "category" : "公有停車場", "socket_type" : "80A", "plug_count" : 2, "fee" : "N"}}, {"type" : "Feature", "geometry" : {"type":"Point","coordinates":[121.4583861,25.0145242]}, "properties" : {"station_name" : "板橋民權立體停車場", "district" : "板橋區", "address" : "新北市板橋區民權路89號2F", "category" : "公有停車場", "socket_type" : "80A", "plug_count" : 2, "fee" : "N"}}, {"type" : "Feature", "geometry" : {"type":"Point","coordinates":[121.4712137,25.0182578]}, "properties" : {"station_name" : "板橋民生公園停車場", "district" : "板橋區", "address" : "新北市板橋區民生路一段30巷B1", "category" : "公有停車場", "socket_type" : "80A", "plug_count" : 2, "fee" : "N"}}, {"type" : "Feature", "geometry" : {"type":"Point","coordinates":[121.4450824,25.0003758]}, "properties" : {"station_name" : "板橋台北紙廠停車場", "district" : "板橋區", "address" : "新北市板橋區大觀路二段28號", "category" : "公有停車場", "socket_type" : "32A", "plug_count" : 2, "fee" : "N"}}, {"type" : "Feature", "geometry" : {"type":"Point","coordinates":[121.4537259,25.0073542]}, "properties" : {"station_name" : "板橋華東停車場", "district" : "板橋區", "address" : "新北市板橋區南雅南路二段144巷口", "category" : "公有停車場", "socket_type" : "32A", "plug_count" : 2, "fee" : "N"}}, {"type" : "Feature", "geometry" : {"type":"Point","coordinates":[121.4701228,25.0109652]}, "properties" : {"station_name" : "板橋特專三停車場", "district" : "板橋區", "address" : "新北市板橋區漢生東路53巷對面", "category" : "公有停車場", "socket_type" : "32A", "plug_count" : 2, "fee" : "N"}}, {"type" : "Feature", "geometry" : {"type":"Point","coordinates":[121.4721246,25.0230246]}, "properties" : {"station_name" : "板橋萬板橋下停車場", "district" : "板橋區", "address" : "新北市板橋區萬板路及縣民大道三段245巷交叉口", "category" : "公有停車場", "socket_type" : "32A", "plug_count" : 2, "fee" : "N"}}, {"type" : "Feature", "geometry" : {"type":"Point","coordinates":[121.4642427,24.9976588]}, "properties" : {"station_name" : "板橋重慶公園停車場", "district" : "板橋區", "address" : "新北市板橋區重慶路265號", "category" : "公有停車場", "socket_type" : "80A", "plug_count" : 2, "fee" : "N"}}, {"type" : "Feature", "geometry" : {"type":"Point","coordinates":[121.4590989,25.0096703]}, "properties" : {"station_name" : "新北市立圖書館地下停車場", "district" : "板橋區", "address" : "新北市板橋區貴興街139號", "category" : "公有停車場", "socket_type" : "32A", "plug_count" : 2, "fee" : "N"}}, {"type" : "Feature", "geometry" : {"type":"Point","coordinates":[121.4701937,25.0140383]}, "properties" : {"station_name" : "新北市民廣場停車場", "district" : "板橋區", "address" : "新北市板橋區中山路一段161號", "category" : "公有停車場", "socket_type" : "32A", "plug_count" : 4, "fee" : "N"}}, {"type" : "Feature", "geometry" : {"type":"Point","coordinates":[121.4685979,25.0291405]}, "properties" : {"station_name" : "江翠國中停車場", "district" : "板橋區", "address" : "新北市板橋區松江街63號(面對學校大門左邊約50米為停車場入口)", "category" : "公有停車場", "socket_type" : "32A", "plug_count" : 2, "fee" : "N"}}, {"type" : "Feature", "geometry" : {"type":"Point","coordinates":[121.4759422,25.0218055]}, "properties" : {"station_name" : "華翠橋下停車場", "district" : "板橋區", "address" : "新北市板橋區縣民大道三段202號", "category" : "公有停車場", "socket_type" : "32A", "plug_count" : 2, "fee" : "N"}}, {"type" : "Feature", "geometry" : {"type":"Point","coordinates":[121.467965,25.0163609]}, "properties" : {"station_name" : "板橋車站停車場", "district" : "板橋區", "address" : "新北市板橋區縣民大道二段7號", "category" : "公有停車場", "socket_type" : "32A", "plug_count" : 2, "fee" : "N"}}, {"type" : "Feature", "geometry" : {"type":"Point","coordinates":[121.4553129,25.0195075]}, "properties" : {"station_name" : "板橋國中地下停車場", "district" : "板橋區", "address" : "新北市板橋區中正路437號", "category" : "公有停車場", "socket_type" : "32A", "plug_count" : 2, "fee" : "N"}}, {"type" : "Feature", "geometry" : {"type":"Point","coordinates":[121.4620712,25.0262164]}, "properties" : {"station_name" : "板橋四維公園停車場", "district" : "板橋區", "address" : "新北市板橋區陽明街166號", "category" : "公有停車場", "socket_type" : "32A", "plug_count" : 10, "fee" : "N"}}, {"type" : "Feature", "geometry" : {"type":"Point","coordinates":[121.4812504,25.0256816]}, "properties" : {"station_name" : "新北市板橋區華翠橋下H、I、K平面停車場", "district" : "板橋區", "address" : "新北市板橋區華翠橋下(新北市板橋區富山街至太和街間)", "category" : "公有停車場", "socket_type" : "32A", "plug_count" : 2, "fee" : "N"}}, {"type" : "Feature", "geometry" : {"type":"Point","coordinates":[121.3757221,25.0857713]}, "properties" : {"station_name" : "林口停三立體停車場", "district" : "林口區", "address" : "新北市林口區中山路99號", "category" : "公有停車場", "socket_type" : "80A", "plug_count" : 2, "fee" : "N"}}, {"type" : "Feature", "geometry" : {"type":"Point","coordinates":[121.36251,25.06599]}, "properties" : {"station_name" : "林口停四停車場", "district" : "林口區", "address" : "新北市林口區興林街與仁愛路一段交叉口", "category" : "公有停車場", "socket_type" : "32A", "plug_count" : 1, "fee" : "N"}}, {"type" : "Feature", "geometry" : {"type":"Point","coordinates":[121.3611577,25.0649728]}, "properties" : {"station_name" : "林口A9環球購物中心", "district" : "林口區", "address" : "新北市林口區文化三路一段2號 B2", "category" : "賣場", "socket_type" : "40A", "plug_count" : 3, "fee" : "N"}}, {"type" : "Feature", "geometry" : {"type":"Point","coordinates":[121.4275817,25.0502721]}, "properties" : {"station_name" : "泰山義學立體停車場", "district" : "泰山區", "address" : "新北市泰山區明志路二段188號", "category" : "公有停車場", "socket_type" : "80A", "plug_count" : 2, "fee" : "N"}}, {"type" : "Feature", "geometry" : {"type":"Point","coordinates":[121.4379022,25.0637935]}, "properties" : {"station_name" : "泰山楓樹腳公園停車場", "district" : "泰山區", "address" : "新北市泰山區楓江路26巷20號", "category" : "公有停車場", "socket_type" : "80A", "plug_count" : 2, "fee" : "N"}}, {"type" : "Feature", "geometry" : {"type":"Point","coordinates":[121.4350639,25.0564269]}, "properties" : {"station_name" : "泰山公有停車場", "district" : "泰山區", "address" : "新北市泰山區仁愛路與全興路交叉處", "category" : "公有停車場", "socket_type" : "80A", "plug_count" : 4, "fee" : "N"}}, {"type" : "Feature", "geometry" : {"type":"Point","coordinates":[121.5505683,24.8681247]}, "properties" : {"station_name" : "烏來立體停車場", "district" : "烏來區", "address" : "新北市烏來區烏來街47號2樓", "category" : "公有停車場", "socket_type" : "80A", "plug_count" : 4, "fee" : "N"}}, {"type" : "Feature", "geometry" : {"type":"Point","coordinates":[121.5466704,24.8750126]}, "properties" : {"station_name" : "璞石麗緻溫泉會館", "district" : "烏來區", "address" : "新北市烏來區忠治里新烏路五段88號", "category" : "飯店", "socket_type" : "32A", "plug_count" : 4, "fee" : "N"}}, {"type" : "Feature", "geometry" : {"type":"Point","coordinates":[121.9241355,25.0533176]}, "properties" : {"station_name" : "貢寮澳底停車場", "district" : "貢寮區", "address" : "新北市貢寮區仁愛路43號B1", "category" : "公有停車場", "socket_type" : "32A", "plug_count" : 2, "fee" : "N"}}, {"type" : "Feature", "geometry" : {"type":"Point","coordinates":[121.4553209,25.1779839]}, "properties" : {"station_name" : "全家淡水新莊店", "district" : "淡水區", "address" : "新北市淡水區淡金路一段166號", "category" : "賣場", "socket_type" : "80A", "plug_count" : 2, "fee" : "N"}}, {"type" : "Feature", "geometry" : {"type":"Point","coordinates":[121.4446239,25.1819505]}, "properties" : {"station_name" : "淡水水碓立體停車場", "district" : "淡水區", "address" : "新北市淡水區中山北路一段189號", "category" : "公有停車場", "socket_type" : "32A", "plug_count" : 2, "fee" : "N"}}, {"type" : "Feature", "geometry" : {"type":"Point","coordinates":[121.4389505,25.1726651]}, "properties" : {"station_name" : "淡水三民停車場", "district" : "淡水區", "address" : "新北市淡水區建設街6號", "category" : "公有停車場", "socket_type" : "32A", "plug_count" : 2, "fee" : "N"}}, {"type" : "Feature", "geometry" : {"type":"Point","coordinates":[121.617092,25.0033421]}, "properties" : {"station_name" : "深坑公有立體停車場", "district" : "深坑區", "address" : "新北市深坑區北深路二段192號", "category" : "公有停車場", "socket_type" : "80A", "plug_count" : 2, "fee" : "N"}}, {"type" : "Feature", "geometry" : {"type":"Point","coordinates":[121.6195697,25.0014781]}, "properties" : {"station_name" : " \n深坑區兒童遊戲場地下停車場", "district" : "深坑區", "address" : "新北市深坑區文化街與平埔街口B1", "category" : "公有停車場", "socket_type" : "32A", "plug_count" : 2, "fee" : "N"}}, {"type" : "Feature", "geometry" : {"type":"Point","coordinates":[121.5380985,24.9585388]}, "properties" : {"station_name" : "捷運新店站", "district" : "新店區", "address" : "新北市新店區北宜路一段2號", "category" : "捷運站", "socket_type" : "80A", "plug_count" : 2, "fee" : "N"}}, {"type" : "Feature", "geometry" : {"type":"Point","coordinates":[121.5321792,24.9902571]}, "properties" : {"station_name" : "碧潭東岸停車場", "district" : "新店區", "address" : "新北市新店區環河路29巷5號1樓旁空地", "category" : "公有停車場", "socket_type" : "80A", "plug_count" : 4, "fee" : "N"}}, {"type" : "Feature", "geometry" : {"type":"Point","coordinates":[121.5428726,24.9841049]}, "properties" : {"station_name" : "新店中興低碳停車場", "district" : "新店區", "address" : "新北市新店區中興路三段6號", "category" : "公有停車場", "socket_type" : "80A", "plug_count" : 6, "fee" : "N"}}, {"type" : "Feature", "geometry" : {"type":"Point","coordinates":[121.5514276,24.9788313]}, "properties" : {"station_name" : "新店寶橋立體停車場", "district" : "新店區", "address" : "新北市新店區寶橋路10號", "category" : "公有停車場", "socket_type" : "80A", "plug_count" : 4, "fee" : "N"}}, {"type" : "Feature", "geometry" : {"type":"Point","coordinates":[121.5419418,24.9673935]}, "properties" : {"station_name" : "新店大豐地下停車場", "district" : "新店區", "address" : "新北市新店區民族路109號B2", "category" : "公有停車場", "socket_type" : "80A", "plug_count" : 2, "fee" : "N"}}, {"type" : "Feature", "geometry" : {"type":"Point","coordinates":[121.5419418,24.9673935]}, "properties" : {"station_name" : "新店安康立體停車場", "district" : "新店區", "address" : "新北市新店區安康路二段120號4F", "category" : "公有停車場", "socket_type" : "32A", "plug_count" : 2, "fee" : "N"}}, {"type" : "Feature", "geometry" : {"type":"Point","coordinates":[121.5169794,24.9765093]}, "properties" : {"station_name" : "新店安和停車場", "district" : "新店區", "address" : "新北市新店區安和路二段141號", "category" : "公有停車場", "socket_type" : "32A", "plug_count" : 2, "fee" : "N"}}, {"type" : "Feature", "geometry" : {"type":"Point","coordinates":[121.5419418,24.9673935]}, "properties" : {"station_name" : "新店北新地下停車場", "district" : "新店區", "address" : "新北市新店區北新路一段92號B1", "category" : "公有停車場", "socket_type" : "32A", "plug_count" : 2, "fee" : "N"}}, {"type" : "Feature", "geometry" : {"type":"Point","coordinates":[121.5379188,24.9712312]}, "properties" : {"station_name" : "三民公有停車場", "district" : "新店區", "address" : "新北市新店區三民路20-1號B1", "category" : "公有停車場", "socket_type" : "32A", "plug_count" : 2, "fee" : "N"}}, {"type" : "Feature", "geometry" : {"type":"Point","coordinates":[121.5337596,24.978807]}, "properties" : {"station_name" : "新店高中地下停車場", "district" : "新店區", "address" : "新北市新店區中央路93號", "category" : "公有停車場", "socket_type" : "80A", "plug_count" : 3, "fee" : "N"}}, {"type" : "Feature", "geometry" : {"type":"Point","coordinates":[121.4599462,25.0604648]}, "properties" : {"station_name" : "新莊頭前國中停車場", "district" : "新莊區", "address" : "新北市新莊區思源路485號", "category" : "公有停車場", "socket_type" : "80A", "plug_count" : 2, "fee" : "N"}}, {"type" : "Feature", "geometry" : {"type":"Point","coordinates":[121.4502478,25.0357722]}, "properties" : {"station_name" : "新莊新中停車場", "district" : "新莊區", "address" : "新北市新莊區景德街138號地下室", "category" : "公有停車場", "socket_type" : "32A", "plug_count" : 2, "fee" : "N"}}, {"type" : "Feature", "geometry" : {"type":"Point","coordinates":[121.452042,25.0381206]}, "properties" : {"station_name" : "新莊體育場停車場", "district" : "新莊區", "address" : "新北市新莊區中華路一段75號", "category" : "公有停車場", "socket_type" : "80A", "plug_count" : 4, "fee" : "N"}}, {"type" : "Feature", "geometry" : {"type":"Point","coordinates":[121.4502478,25.0357722]}, "properties" : {"station_name" : "新莊台65橋下停車場", "district" : "新莊區", "address" : "新北市新莊區中環路二段48之8號", "category" : "公有停車場", "socket_type" : "32A", "plug_count" : 1, "fee" : "N"}}, {"type" : "Feature", "geometry" : {"type":"Point","coordinates":[121.4502478,25.0357722]}, "properties" : {"station_name" : "新莊後港公園地下停車場", "district" : "新莊區", "address" : "新北市新莊區後港一路19號B2", "category" : "公有停車場", "socket_type" : "80A", "plug_count" : 4, "fee" : "N"}}, {"type" : "Feature", "geometry" : {"type":"Point","coordinates":[121.4536835,25.0463548]}, "properties" : {"station_name" : "中港平面停車場", "district" : "新莊區", "address" : "新北市新莊區中華路85巷", "category" : "公有停車場", "socket_type" : "32A", "plug_count" : 2, "fee" : "N"}}, {"type" : "Feature", "geometry" : {"type":"Point","coordinates":[121.4630027,25.0405575]}, "properties" : {"station_name" : "翰品酒店新莊", "district" : "新莊區", "address" : "新北市新莊區中正路82號", "category" : "飯店", "socket_type" : "32A", "plug_count" : 1, "fee" : "N"}}, {"type" : "Feature", "geometry" : {"type":"Point","coordinates":[121.4502478,25.0357722]}, "properties" : {"station_name" : "IWS 新莊站", "district" : "新莊區", "address" : "新北市新莊區中正路486之1號", "category" : "賣場", "socket_type" : "40A", "plug_count" : 1, "fee" : "N"}}, {"type" : "Feature", "geometry" : {"type":"Point","coordinates":[121.8091058,25.1083861]}, "properties" : {"station_name" : "瑞芳區立體停車場", "district" : "瑞芳區", "address" : "新北市瑞芳區民權街3-1號", "category" : "公有停車場", "socket_type" : "80A", "plug_count" : 2, "fee" : "N"}}, {"type" : "Feature", "geometry" : {"type":"Point","coordinates":[121.688687,25.181234]}, "properties" : {"station_name" : "地質公園停車場", "district" : "萬里區", "address" : "新北市萬里區野柳里港東路167-1號", "category" : "公有停車場", "socket_type" : "32A", "plug_count" : 2, "fee" : "N"}}, {"type" : "Feature", "geometry" : {"type":"Point","coordinates":[121.633399,25.0762578]}, "properties" : {"station_name" : "翡翠灣福華渡假飯店", "district" : "萬里區", "address" : "新北市萬里區翡翠路17號 B2", "category" : "飯店", "socket_type" : "40A", "plug_count" : 2, "fee" : "N"}}, {"type" : "Feature", "geometry" : {"type":"Point","coordinates":[121.8659996,25.0390915]}, "properties" : {"station_name" : "雙溪低碳旅遊服務中心", "district" : "雙溪區", "address" : "新北市雙溪區自強路5-1號", "category" : "公務機關-其他", "socket_type" : "80A", "plug_count" : 2, "fee" : "N"}}, {"type" : "Feature", "geometry" : {"type":"Point","coordinates":[121.4737,25.084923]}, "properties" : {"station_name" : "新北蘆洲國小停車場", "district" : "蘆洲區", "address" : "新北市蘆洲區中正路100號B1", "category" : "公有停車場", "socket_type" : "80A", "plug_count" : 2, "fee" : "N"}}, {"type" : "Feature", "geometry" : {"type":"Point","coordinates":[121.4741558,25.0879304]}, "properties" : {"station_name" : "蘆洲鷺江停車場", "district" : "蘆洲區", "address" : "新北市蘆洲區民權路26號", "category" : "公有停車場", "socket_type" : "80A", "plug_count" : 4, "fee" : "N"}}, {"type" : "Feature", "geometry" : {"type":"Point","coordinates":[121.4596365,25.0826494]}, "properties" : {"station_name" : "蘆洲成功停車場", "district" : "蘆洲區", "address" : "新北市蘆洲區長安街222號B1", "category" : "公有停車場", "socket_type" : "80A", "plug_count" : 2, "fee" : "N"}}, {"type" : "Feature", "geometry" : {"type":"Point","coordinates":[121.4607622,25.0871066]}, "properties" : {"station_name" : "蘆洲鷺江國中停車場", "district" : "蘆洲區", "address" : "新北市蘆洲區長興路300號B2", "category" : "公有停車場", "socket_type" : "80A", "plug_count" : 2, "fee" : "N"}}, {"type" : "Feature", "geometry" : {"type":"Point","coordinates":[121.4790173,25.0849052]}, "properties" : {"station_name" : "蘆洲溪墘停車場", "district" : "蘆洲區", "address" : "新北市蘆洲區信義路59巷2號", "category" : "公有停車場", "socket_type" : "32A", "plug_count" : 2, "fee" : "N"}}, {"type" : "Feature", "geometry" : {"type":"Point","coordinates":[121.353973,24.9533587]}, "properties" : {"station_name" : "鶯歌陶瓷博物館", "district" : "鶯歌區", "address" : "新北市鶯歌區文化路200號", "category" : "公務機關-其他", "socket_type" : "80A", "plug_count" : 2, "fee" : "N"}}, {"type" : "Feature", "geometry" : {"type":"Point","coordinates":[121.3348253,24.9402522]}, "properties" : {"station_name" : "宏洲磁磚觀光工廠", "district" : "鶯歌區", "address" : "新北市鶯歌區中正三路230巷16號1樓", "category" : "觀光景點", "socket_type" : "80A", "plug_count" : 2, "fee" : "N"}}]}
