{"type" : "FeatureCollection", "features" : [{"type" : "Feature", "geometry" : {"type":"Point","coordinates":[121.5202159,25.0702722]}, "properties" : {"station_name" : "台北花博公園超級充電站", "district" : "中山區", "address" : "台北市中山區玉門街1號", "category" : "Tesla"}}, {"type" : "Feature", "geometry" : {"type":"Point","coordinates":[121.5756543,25.0698752]}, "properties" : {"station_name" : "台北內湖服務體驗中心超級充電站", "district" : "內湖區", "address" : "台北市內湖區舊宗路二段1號", "category" : "Tesla"}}, {"type" : "Feature", "geometry" : {"type":"Point","coordinates":[121.5927274,25.0498787]}, "properties" : {"station_name" : "台北南港展覽館2館超級充電站", "district" : "南港區", "address" : "台北市南港區經貿二路2號 B1F 165-170車位", "category" : "Tesla"}}, {"type" : "Feature", "geometry" : {"type":"Point","coordinates":[121.4985934,25.1319307]}, "properties" : {"station_name" : "北投雅樂軒超級充電站", "district" : "北投區", "address" : "台北市北投區大業路300巷1號 B2", "category" : "Tesla"}}, {"type" : "Feature", "geometry" : {"type":"Point","coordinates":[121.5374994,25.0112342]}, "properties" : {"station_name" : "臺灣大學超級充電站", "district" : "大安區", "address" : "台北市大安區羅斯福路四段1號", "category" : "Tesla"}}, {"type" : "Feature", "geometry" : {"type":"Point","coordinates":[121.5262468,25.0934949]}, "properties" : {"station_name" : "福林超級充電站", "district" : "士林區", "address" : "台北市士林區中山北路五段465號旁", "category" : "Tesla"}}, {"type" : "Feature", "geometry" : {"type":"Point","coordinates":[121.5704901,25.0492079]}, "properties" : {"station_name" : "松山超級充電站", "district" : "信義區", "address" : "台北市信義區市民大道六段246號", "category" : "Tesla"}}, {"type" : "Feature", "geometry" : {"type":"Point","coordinates":[121.5644995,25.0338352]}, "properties" : {"station_name" : "信義交易廣場充電站", "district" : "信義區", "address" : "台北市信義區松仁路101號B3樓", "category" : "Tesla"}}, {"type" : "Feature", "geometry" : {"type":"Point","coordinates":[121.5262468,25.0934949]}, "properties" : {"station_name" : "大葉高島屋充電站", "district" : "士林區", "address" : "台北市士林區忠誠路二段55號B2", "category" : "Tesla"}}, {"type" : "Feature", "geometry" : {"type":"Point","coordinates":[121.5050977,25.0332513]}, "properties" : {"station_name" : "台北萬華家樂福桂林店超級充電站", "district" : "萬華區", "address" : "台北市萬華區桂林路1號 7F", "category" : "Tesla"}}, {"type" : "Feature", "geometry" : {"type":"Point","coordinates":[121.520744,25.0499447]}, "properties" : {"station_name" : "台北大直NOKE忠泰樂生活超級充電站", "district" : "中山區", "address" : "台北市中山區樂群三路200號 B2", "category" : "Tesla"}}, {"type" : "Feature", "geometry" : {"type":"Point","coordinates":[121.5340219,25.0186006]}, "properties" : {"station_name" : "臺大體育館超級充電站", "district" : "大安區", "address" : "台北市大安區羅斯福路四段1號 B2", "category" : "Tesla"}}, {"type" : "Feature", "geometry" : {"type":"Point","coordinates":[121.5298739,25.0228712]}, "properties" : {"station_name" : "台北政治大學公企中心超級充電站", "district" : "大安區", "address" : "台北市大安區金華街187號 B2", "category" : "Tesla"}}, {"type" : "Feature", "geometry" : {"type":"Point","coordinates":[121.5435546,25.0333294]}, "properties" : {"station_name" : "台北富邦超級充電站", "district" : "大安區", "address" : "台北市大安區仁愛路四段169號B3", "category" : "Tesla"}}, {"type" : "Feature", "geometry" : {"type":"Point","coordinates":[121.5439651,25.051836]}, "properties" : {"station_name" : "台北大倉久和大飯站", "district" : "中山區", "address" : "台北市中山區南京東路?段9號", "category" : "華城電能"}}, {"type" : "Feature", "geometry" : {"type":"Point","coordinates":[121.61973,25.0586]}, "properties" : {"station_name" : "台北新光南軟站", "district" : "南港區", "address" : "台北市南港區經貿二路196號", "category" : "華城電能"}}, {"type" : "Feature", "geometry" : {"type":"Point","coordinates":[121.5473322,25.0560048]}, "properties" : {"station_name" : "台日交流協會", "district" : "松山區", "address" : "台北市松山區慶城街28號", "category" : "華城電能"}}, {"type" : "Feature", "geometry" : {"type":"Point","coordinates":[121.5970454,25.0710261]}, "properties" : {"station_name" : "台北內湖亞太經貿廣場A棟站", "district" : "內湖區", "address" : "台北市內湖區舊宗路二段187號 B2", "category" : "華城電能"}}, {"type" : "Feature", "geometry" : {"type":"Point","coordinates":[121.505426,25.0297093]}, "properties" : {"station_name" : "台北花園大酒店", "district" : "中正區", "address" : "台北市中正區中華路二段1號", "category" : "華城電能"}}, {"type" : "Feature", "geometry" : {"type":"Point","coordinates":[121.5889983,25.069664]}, "properties" : {"station_name" : "EVALUE內湖旗艦站", "district" : "內湖區", "address" : "臺北市內湖區民權東路6段186-8號", "category" : "華城電能"}}, {"type" : "Feature", "geometry" : {"type":"Point","coordinates":[121.5585063,25.0799481]}, "properties" : {"station_name" : "維多麗亞酒店", "district" : "中山區", "address" : "台北市中山區敬業四路168號", "category" : "華城電能"}}, {"type" : "Feature", "geometry" : {"type":"Point","coordinates":[120.3019194,22.6128788]}, "properties" : {"station_name" : "台糖台北會館", "district" : "中正區", "address" : "台北市中正區中華路?段39號1至21樓及B1至B4", "category" : "華城電能"}}, {"type" : "Feature", "geometry" : {"type":"Point","coordinates":[121.5970454,25.0710261]}, "properties" : {"station_name" : "燦坤內湖總部站", "district" : "內湖區", "address" : "台北市內湖區堤頂大道一段331號 1F&B2", "category" : "華城電能"}}, {"type" : "Feature", "geometry" : {"type":"Point","coordinates":[121.5262468,25.0934949]}, "properties" : {"station_name" : "雀客藏居_台北陽明山", "district" : "士林區", "address" : "台北市士林區格致路237號", "category" : "華城電能"}}, {"type" : "Feature", "geometry" : {"type":"Point","coordinates":[121.5668963,25.0333448]}, "properties" : {"station_name" : "台北市信義之星", "district" : "信義區", "address" : "臺北市信義區松智路14號B2", "category" : "華城電能"}}, {"type" : "Feature", "geometry" : {"type":"Point","coordinates":[121.5644995,25.0338352]}, "properties" : {"station_name" : "台北金融大樓股份有限公司(101購物中心)", "district" : "信義區", "address" : "台北市信義區市府路45號B3、B4", "category" : "華城電能"}}, {"type" : "Feature", "geometry" : {"type":"Point","coordinates":[121.5475088,25.0723297]}, "properties" : {"station_name" : "順益汽車_濱江營業所", "district" : "中山區", "address" : "台北市中山區濱江街309號", "category" : "華城電能"}}, {"type" : "Feature", "geometry" : {"type":"Point","coordinates":[121.5970454,25.0710261]}, "properties" : {"station_name" : "台北企業總部園區", "district" : "內湖區", "address" : "台北市內湖區南京東路六段370號W棟B1停車場", "category" : "華城電能"}}, {"type" : "Feature", "geometry" : {"type":"Point","coordinates":[121.5463013,25.054098]}, "properties" : {"station_name" : "台北松山運動中心", "district" : "松山區", "address" : "台北市松山區敦化北路1號", "category" : "華城電能"}}, {"type" : "Feature", "geometry" : {"type":"Point","coordinates":[121.5697948,25.0084625]}, "properties" : {"station_name" : "台北市文山運動中心", "district" : "文山區", "address" : "台北市文山區興隆路三段222號B1停車場", "category" : "華城電能"}}, {"type" : "Feature", "geometry" : {"type":"Point","coordinates":[121.5382187,25.0460414]}, "properties" : {"station_name" : "台北中崙第一停車場", "district" : "中山區", "address" : "台北市中山區八德路二段210巷10號", "category" : "華城電能"}}, {"type" : "Feature", "geometry" : {"type":"Point","coordinates":[121.4989935,25.0376856]}, "properties" : {"station_name" : "台北萬華車站地下停車場", "district" : "萬華區", "address" : "台北市萬華區西園路一段306巷1號", "category" : "華城電能"}}, {"type" : "Feature", "geometry" : {"type":"Point","coordinates":[121.5279518,25.0528439]}, "properties" : {"station_name" : "國立台灣大學_新南地下停車場", "district" : "大安區", "address" : "台北市大安區新生南路三段_新南停車場B1", "category" : "華城電能"}}, {"type" : "Feature", "geometry" : {"type":"Point","coordinates":[121.5471948,25.0145738]}, "properties" : {"station_name" : "國立台灣大學_芳蘭第一平面停車場", "district" : "大安區", "address" : "106台北市大安區芳蘭路71號", "category" : "華城電能"}}, {"type" : "Feature", "geometry" : {"type":"Point","coordinates":[121.5298666,25.0132749]}, "properties" : {"station_name" : "國立台灣大學_水源校區臨時停車場", "district" : "中正區", "address" : "100台北市中正區思源街18號", "category" : "華城電能"}}, {"type" : "Feature", "geometry" : {"type":"Point","coordinates":[121.5435546,25.0333294]}, "properties" : {"station_name" : "\t國立台灣大學_生醫工程館地下停車場", "district" : "大安區", "address" : "台北市大安區芳蘭路49號B2", "category" : "華城電能"}}, {"type" : "Feature", "geometry" : {"type":"Point","coordinates":[121.6077101,25.0533658]}, "properties" : {"station_name" : "台北興中立體停車場", "district" : "南港區", "address" : "台北市南港區興中路44巷1號", "category" : "華城電能"}}, {"type" : "Feature", "geometry" : {"type":"Point","coordinates":[121.5970454,25.0710261]}, "properties" : {"station_name" : "\t台北洲子立體停車場", "district" : "內湖區", "address" : "台北市內湖區瑞光路513巷22弄2號", "category" : "華城電能"}}, {"type" : "Feature", "geometry" : {"type":"Point","coordinates":[121.5970454,25.0710261]}, "properties" : {"station_name" : "台北東湖國小地下停車場", "district" : "內湖區", "address" : "台北市內湖區東湖路115號", "category" : "華城電能"}}, {"type" : "Feature", "geometry" : {"type":"Point","coordinates":[121.4985934,25.1319307]}, "properties" : {"station_name" : "台北大豐公園地下停車場", "district" : "北投區", "address" : "台北市北投區大興街145號B1", "category" : "華城電能"}}, {"type" : "Feature", "geometry" : {"type":"Point","coordinates":[121.4985934,25.1319307]}, "properties" : {"station_name" : "台北立農公園地下停車場", "district" : "北投區", "address" : "台北市北投區承德路七段372號B1", "category" : "華城電能"}}, {"type" : "Feature", "geometry" : {"type":"Point","coordinates":[121.6111219,25.0529051]}, "properties" : {"station_name" : "台北南港國小地下停車場", "district" : "南港區", "address" : "台北市南港區東興街59號", "category" : "華城電能"}}, {"type" : "Feature", "geometry" : {"type":"Point","coordinates":[121.5914059,25.0381301]}, "properties" : {"station_name" : "台北玉成公園地下停車場", "district" : "南港區", "address" : "台北市南港區成福路116號", "category" : "華城電能"}}, {"type" : "Feature", "geometry" : {"type":"Point","coordinates":[121.5697948,25.0084625]}, "properties" : {"station_name" : "歐特儀_捷運木柵站轉乘停車場", "district" : "文山區", "address" : "台北市文山區木柵路四段135號B1樓", "category" : "華城電能"}}, {"type" : "Feature", "geometry" : {"type":"Point","coordinates":[121.5435546,25.0333294]}, "properties" : {"station_name" : "聯合醫院_台北仁愛院區", "district" : "大安區", "address" : "台北市大安區仁愛路四段10號", "category" : "華城電能"}}, {"type" : "Feature", "geometry" : {"type":"Point","coordinates":[121.5644995,25.0338352]}, "properties" : {"station_name" : "聯合醫院_台北松德院區", "district" : "信義區", "address" : "台北市信義區松德路309號", "category" : "華城電能"}}, {"type" : "Feature", "geometry" : {"type":"Point","coordinates":[121.514576,25.0267183]}, "properties" : {"station_name" : "聯合醫院_台北婦幼院區", "district" : "中正區", "address" : "台北市中正區福州街12號", "category" : "華城電能"}}, {"type" : "Feature", "geometry" : {"type":"Point","coordinates":[121.5262468,25.0934949]}, "properties" : {"station_name" : "聯合醫院_台北陽明院區", "district" : "士林區", "address" : "台北市士林區雨聲街105號", "category" : "華城電能"}}, {"type" : "Feature", "geometry" : {"type":"Point","coordinates":[121.5126435,25.04977]}, "properties" : {"station_name" : "聯合醫院_台北中興院區", "district" : "大同區", "address" : "台北市大同區鄭州路145號", "category" : "華城電能"}}, {"type" : "Feature", "geometry" : {"type":"Point","coordinates":[121.505426,25.0297093]}, "properties" : {"station_name" : "聯合醫院_台北和平院區", "district" : "中正區", "address" : "台北市中正區中華路二段33號", "category" : "華城電能"}}, {"type" : "Feature", "geometry" : {"type":"Point","coordinates":[121.5064782,25.0636874]}, "properties" : {"station_name" : "台北大龍國小地下停車場 ", "district" : "大同區", "address" : "台北市大同區哈密街47號B1", "category" : "華城電能"}}, {"type" : "Feature", "geometry" : {"type":"Point","coordinates":[121.5262468,25.0934949]}, "properties" : {"station_name" : "台北蘭雅公園地下停車場", "district" : "士林區", "address" : "台北市士林區德行東路129巷31號", "category" : "華城電能"}}, {"type" : "Feature", "geometry" : {"type":"Point","coordinates":[121.5087144,25.0245866]}, "properties" : {"station_name" : "台北青年公園高爾夫球場", "district" : "萬華區", "address" : "台北市萬華區國興路5號", "category" : "華城電能"}}, {"type" : "Feature", "geometry" : {"type":"Point","coordinates":[121.5262468,25.0934949]}, "properties" : {"station_name" : "台北前港公園地下停車場", "district" : "士林區", "address" : "台北市士林區前港街45號", "category" : "華城電能"}}, {"type" : "Feature", "geometry" : {"type":"Point","coordinates":[121.5262468,25.0934949]}, "properties" : {"station_name" : "台北海光公園地下停車場", "district" : "士林區", "address" : "台北市士林區葫蘆街83號B1樓", "category" : "華城電能"}}, {"type" : "Feature", "geometry" : {"type":"Point","coordinates":[121.5107284,25.0776345]}, "properties" : {"station_name" : "台北啟聰學校地下停車場", "district" : "大同區", "address" : "台北市大同區延平北路四段205號", "category" : "華城電能"}}, {"type" : "Feature", "geometry" : {"type":"Point","coordinates":[121.5644995,25.0338352]}, "properties" : {"station_name" : "\t台北南山廣場", "district" : "信義區", "address" : "台北市信義區松仁路100號B4", "category" : "華城電能"}}, {"type" : "Feature", "geometry" : {"type":"Point","coordinates":[121.5050977,25.0332513]}, "properties" : {"station_name" : "台北古亭國中地下停車場", "district" : "萬華區", "address" : "台北市萬華區中華路二段606巷1號", "category" : "華城電能"}}, {"type" : "Feature", "geometry" : {"type":"Point","coordinates":[121.5262468,25.0934949]}, "properties" : {"station_name" : "台北福林公園地下停車場", "district" : "士林區", "address" : "台北市士林區中正路17號", "category" : "華城電能"}}, {"type" : "Feature", "geometry" : {"type":"Point","coordinates":[121.5203914,25.0526256]}, "properties" : {"station_name" : "台北中山運動中心旁平面停車場", "district" : "中山區", "address" : "台北市中山區中山北路2段44巷及46巷中間", "category" : "華城電能"}}, {"type" : "Feature", "geometry" : {"type":"Point","coordinates":[121.4933695,25.0982703]}, "properties" : {"station_name" : "台北慶昌橋下停車場", "district" : "大同區", "address" : "台北市大同區哈密街59巷-延平北路", "category" : "華城電能"}}, {"type" : "Feature", "geometry" : {"type":"Point","coordinates":[121.5262468,25.0934949]}, "properties" : {"station_name" : "台北福港街平面停車場", "district" : "士林區", "address" : "台北市士林區福港街149巷2號", "category" : "華城電能"}}, {"type" : "Feature", "geometry" : {"type":"Point","coordinates":[121.4985934,25.1319307]}, "properties" : {"station_name" : "台北關渡水岸自然公園平面停車場", "district" : "北投區", "address" : "台北市北投區知行路360號(關渡宮對面空地)", "category" : "華城電能"}}, {"type" : "Feature", "geometry" : {"type":"Point","coordinates":[121.4985934,25.1319307]}, "properties" : {"station_name" : "台北開勝平面停車場", "district" : "北投區", "address" : "台北市北投區珠海路88號", "category" : "華城電能"}}, {"type" : "Feature", "geometry" : {"type":"Point","coordinates":[121.5262468,25.0934949]}, "properties" : {"station_name" : "台北東和平面停車場", "district" : "士林區", "address" : "台北市士林區天母東路69巷旁", "category" : "華城電能"}}, {"type" : "Feature", "geometry" : {"type":"Point","coordinates":[121.5628111,25.0582615]}, "properties" : {"station_name" : "宏達_台北松仁停車場", "district" : "松山區", "address" : "台北市松山區松仁路277號", "category" : "華城電能"}}, {"type" : "Feature", "geometry" : {"type":"Point","coordinates":[121.5475625,25.0138764]}, "properties" : {"station_name" : "歐特儀_台北台大癌醫停車場", "district" : "大安區", "address" : "台北市大安區基隆路三段155巷57號", "category" : "華城電能"}}, {"type" : "Feature", "geometry" : {"type":"Point","coordinates":[121.5050977,25.0332513]}, "properties" : {"station_name" : "台北華江橋下雙層停車場", "district" : "萬華區", "address" : "台北市萬華區和平西路3段382巷對面", "category" : "華城電能"}}, {"type" : "Feature", "geometry" : {"type":"Point","coordinates":[121.5262468,25.0934949]}, "properties" : {"station_name" : "台北福國路橋下平面停車場", "district" : "士林區", "address" : "台北市士林區文林路台灣戲曲中心與臺北高等行政法院間福國路橋下", "category" : "華城電能"}}, {"type" : "Feature", "geometry" : {"type":"Point","coordinates":[121.4910519,25.0278646]}, "properties" : {"station_name" : "台北雙園國中地下停車場", "district" : "萬華區", "address" : "108台北市萬華區西園路二段320巷55弄3號", "category" : "華城電能"}}, {"type" : "Feature", "geometry" : {"type":"Point","coordinates":[121.4985934,25.1319307]}, "properties" : {"station_name" : "台北陽明山立體停車場", "district" : "北投區", "address" : "台北市北投區湖山路(陽明山公園大門口旁)", "category" : "華城電能"}}, {"type" : "Feature", "geometry" : {"type":"Point","coordinates":[121.4985934,25.1319307]}, "properties" : {"station_name" : "台北陽明山第二停車場 ", "district" : "北投區", "address" : "台北市北投區陽金公路(陽明山國家公園遊客服務中心對面)", "category" : "華城電能"}}, {"type" : "Feature", "geometry" : {"type":"Point","coordinates":[121.4985934,25.1319307]}, "properties" : {"station_name" : "台北陽明山花鐘停車場", "district" : "北投區", "address" : "台北市北投區湖山路2段(陽明山公園花鐘前)", "category" : "華城電能"}}, {"type" : "Feature", "geometry" : {"type":"Point","coordinates":[121.4985934,25.1319307]}, "properties" : {"station_name" : "台北豐年運動公園平面停車場", "district" : "北投區", "address" : "台北市北投區大業路527巷旁", "category" : "華城電能"}}, {"type" : "Feature", "geometry" : {"type":"Point","coordinates":[121.5064782,25.0636874]}, "properties" : {"station_name" : "力揚_台北大稻埕停車場", "district" : "大同區", "address" : "台北市大同區歸綏街243號B1", "category" : "華城電能"}}, {"type" : "Feature", "geometry" : {"type":"Point","coordinates":[121.5310081,25.0446944]}, "properties" : {"station_name" : "台北全球人壽希望園區停車場", "district" : "中正區", "address" : "台北市中正區八德路一段55號", "category" : "華城電能"}}, {"type" : "Feature", "geometry" : {"type":"Point","coordinates":[121.5151163,25.1187652]}, "properties" : {"station_name" : "國立陽明交通大學_生物醫學大樓", "district" : "北投區", "address" : "臺北市北投區立農街二段155號", "category" : "華城電能"}}, {"type" : "Feature", "geometry" : {"type":"Point","coordinates":[121.5374994,25.0112342]}, "properties" : {"station_name" : "國立台灣大學_公館平面停車場", "district" : "大安區", "address" : "台北市大安區羅斯福路四段1號", "category" : "華城電能"}}, {"type" : "Feature", "geometry" : {"type":"Point","coordinates":[121.520744,25.0499447]}, "properties" : {"station_name" : "台北美福大飯店", "district" : "中山區", "address" : "台北市中山區樂群二路55號 B4", "category" : "華城電能"}}, {"type" : "Feature", "geometry" : {"type":"Point","coordinates":[121.5628111,25.0582615]}, "properties" : {"station_name" : "台北民生社區中心地下停車場", "district" : "松山區", "address" : "台北市松山區民生東路五段163之1號B2樓", "category" : "華城電能"}}, {"type" : "Feature", "geometry" : {"type":"Point","coordinates":[121.4985934,25.1319307]}, "properties" : {"station_name" : "台北關渡醫院旁平面停車場 ", "district" : "北投區", "address" : "台北市北投區大度路3段301巷", "category" : "華城電能"}}, {"type" : "Feature", "geometry" : {"type":"Point","coordinates":[121.5064782,25.0636874]}, "properties" : {"station_name" : "台北大橋橋下停車場", "district" : "大同區", "address" : "台北市大同區環河北路2段-延平北路3段間之臺北大橋橋下空間", "category" : "華城電能"}}, {"type" : "Feature", "geometry" : {"type":"Point","coordinates":[121.5082123,25.126026]}, "properties" : {"station_name" : "台北公?路228巷臨時平面停車場", "district" : "北投區", "address" : "台北市北投區公館路228巷", "category" : "華城電能"}}, {"type" : "Feature", "geometry" : {"type":"Point","coordinates":[121.5028229,25.0209593]}, "properties" : {"station_name" : "台北青年公園棒球場地下停車場", "district" : "萬華區", "address" : "台北市萬華區青年路69號", "category" : "華城電能"}}, {"type" : "Feature", "geometry" : {"type":"Point","coordinates":[121.4985934,25.1319307]}, "properties" : {"station_name" : "台北懷德街55巷平面停車場", "district" : "北投區", "address" : "台北市北投區懷德街與懷德街55巷交叉口", "category" : "華城電能"}}, {"type" : "Feature", "geometry" : {"type":"Point","coordinates":[121.5262468,25.0934949]}, "properties" : {"station_name" : "台北社正路平面停車場", "district" : "士林區", "address" : "台北市士林區社正路12號旁", "category" : "華城電能"}}, {"type" : "Feature", "geometry" : {"type":"Point","coordinates":[121.5064782,25.0636874]}, "properties" : {"station_name" : "台北建成公園地下停車場", "district" : "大同區", "address" : "台北市大同區承德路二段31號B1樓", "category" : "華城電能"}}, {"type" : "Feature", "geometry" : {"type":"Point","coordinates":[121.5262468,25.0934949]}, "properties" : {"station_name" : "台北延平北路5段1巷平面停車場", "district" : "士林區", "address" : "台北市士林區延平北路5段1巷平面停車場", "category" : "華城電能"}}, {"type" : "Feature", "geometry" : {"type":"Point","coordinates":[121.5064782,25.0636874]}, "properties" : {"station_name" : "台北建成國中地下停車場", "district" : "大同區", "address" : "台北市大同區長安西路37號B1", "category" : "華城電能"}}, {"type" : "Feature", "geometry" : {"type":"Point","coordinates":[121.5082123,25.126026]}, "properties" : {"station_name" : "台北公館路平面停車場", "district" : "北投區", "address" : "台北市北投區公館路、西安路口", "category" : "華城電能"}}, {"type" : "Feature", "geometry" : {"type":"Point","coordinates":[121.4985934,25.1319307]}, "properties" : {"station_name" : "台北大業路280巷平面停車場", "district" : "北投區", "address" : "台北市北投區大業路280巷", "category" : "華城電能"}}, {"type" : "Feature", "geometry" : {"type":"Point","coordinates":[121.5823339,25.0506354]}, "properties" : {"station_name" : "台北市南港運動中心", "district" : "南港區", "address" : "台北市南港區玉成街69號", "category" : "華城電能"}}, {"type" : "Feature", "geometry" : {"type":"Point","coordinates":[121.5113551,25.1129286]}, "properties" : {"station_name" : "台北市北投運動中心", "district" : "北投區", "address" : "台北市北投區石牌路一段39巷100號", "category" : "華城電能"}}, {"type" : "Feature", "geometry" : {"type":"Point","coordinates":[121.5970454,25.0710261]}, "properties" : {"station_name" : "台北內湖CITYLINK停車場", "district" : "內湖區", "address" : "台北市內湖區成功路四段188號2F、5F", "category" : "華城電能"}}, {"type" : "Feature", "geometry" : {"type":"Point","coordinates":[121.5242068,25.0918396]}, "properties" : {"station_name" : "台北福林路平面停車場", "district" : "士林區", "address" : "臺北市士林區福林路與中正路交叉口南側空地(福林2小段578、583及584地號內)", "category" : "華城電能"}}, {"type" : "Feature", "geometry" : {"type":"Point","coordinates":[121.4993322,25.0319327]}, "properties" : {"station_name" : "台北新和庭園平面停車場", "district" : "萬華區", "address" : "臺北市萬華區中華路2段416巷口", "category" : "華城電能"}}, {"type" : "Feature", "geometry" : {"type":"Point","coordinates":[121.540222,25.0794226]}, "properties" : {"station_name" : "台北大直計程車服務站", "district" : "中山區", "address" : "臺北市中山區北安路676號", "category" : "華城電能"}}, {"type" : "Feature", "geometry" : {"type":"Point","coordinates":[121.5360881,25.0112984]}, "properties" : {"station_name" : "台北公館計程車服務站", "district" : "中正區", "address" : "臺北市中正區汀州路三段230巷17號", "category" : "華城電能"}}, {"type" : "Feature", "geometry" : {"type":"Point","coordinates":[121.5246613,25.0720297]}, "properties" : {"station_name" : "台北中山計程車服務站", "district" : "中山區", "address" : "臺北市中山區新生北路3段(臺北市立美術館後面)", "category" : "華城電能"}}, {"type" : "Feature", "geometry" : {"type":"Point","coordinates":[121.5381857,25.0357874]}, "properties" : {"station_name" : "台北建國計程車服務站", "district" : "大安區", "address" : "臺北市大安區建國南路一段34號", "category" : "華城電能"}}, {"type" : "Feature", "geometry" : {"type":"Point","coordinates":[121.5668963,25.0333448]}, "properties" : {"station_name" : "市府轉運停車場", "district" : "信義區", "address" : "臺北市信義區忠孝東路五段6號B4", "category" : "華城電能"}}, {"type" : "Feature", "geometry" : {"type":"Point","coordinates":[121.5574763,25.0839256]}, "properties" : {"station_name" : "Times_台北植福路停車場", "district" : "中山區", "address" : "臺北市中山區植福路11號", "category" : "華城電能"}}, {"type" : "Feature", "geometry" : {"type":"Point","coordinates":[121.501379,25.132419]}, "properties" : {"station_name" : "Times_台北北護大學思樓停車場", "district" : "北投區", "address" : "臺北市北投區明德路365號教學綜合研究大樓B1(北護大學思樓)", "category" : "華城電能"}}, {"type" : "Feature", "geometry" : {"type":"Point","coordinates":[121.5889983,25.069664]}, "properties" : {"station_name" : "Times_台北內湖陽光街停車場", "district" : "內湖區", "address" : "臺北市內湖區陽光街381號旁空地", "category" : "華城電能"}}, {"type" : "Feature", "geometry" : {"type":"Point","coordinates":[121.5242068,25.0918396]}, "properties" : {"station_name" : "台北忠誠路(二)平面停車場 ", "district" : "士林區", "address" : "臺北市士林區忠誠路1段182號旁", "category" : "華城電能"}}, {"type" : "Feature", "geometry" : {"type":"Point","coordinates":[121.515514,25.065986]}, "properties" : {"station_name" : "Times_台北地下街停車場", "district" : "大同區", "address" : "臺北市大同區市民大道一段100號B2", "category" : "華城電能"}}, {"type" : "Feature", "geometry" : {"type":"Point","coordinates":[121.570458,24.989786]}, "properties" : {"station_name" : "台北景美國小地下停車場", "district" : "文山區", "address" : "臺北市文山區景文街142巷2號B1", "category" : "華城電能"}}, {"type" : "Feature", "geometry" : {"type":"Point","coordinates":[121.5475088,25.0723297]}, "properties" : {"station_name" : "台隆賓士_台北濱江", "district" : "中山區", "address" : "台北市中山區濱江街277號", "category" : "台灣賓士"}}, {"type" : "Feature", "geometry" : {"type":"Point","coordinates":[121.5904535,25.0528485]}, "properties" : {"station_name" : "中華賓士_台北南港", "district" : "南港區", "address" : "台北市南港區南港路三段53號1樓", "category" : "台灣賓士"}}, {"type" : "Feature", "geometry" : {"type":"Point","coordinates":[121.4640786,25.1172043]}, "properties" : {"station_name" : "中華賓士_台北關渡", "district" : "北投區", "address" : "台北市北投區大度路三段168號", "category" : "台灣賓士"}}, {"type" : "Feature", "geometry" : {"type":"Point","coordinates":[121.5762512,25.0621286]}, "properties" : {"station_name" : "中華賓士_台北內湖", "district" : "內湖區", "address" : "台北市內湖區舊宗路一段279號", "category" : "台灣賓士"}}, {"type" : "Feature", "geometry" : {"type":"Point","coordinates":[121.5279518,25.0528439]}, "properties" : {"station_name" : "新凱汽車仁愛充電站", "district" : "大安區", "address" : "台北市大安區新生南路?段125號", "category" : "新凱汽車(VOLVO)"}}, {"type" : "Feature", "geometry" : {"type":"Point","coordinates":[121.5970454,25.0710261]}, "properties" : {"station_name" : "新凱汽車內湖充電站", "district" : "內湖區", "address" : "台北市內湖區民權東路六段17號1樓", "category" : "新凱汽車(VOLVO)"}}, {"type" : "Feature", "geometry" : {"type":"Point","coordinates":[121.4985934,25.1319307]}, "properties" : {"station_name" : "新凱汽車士林充電站", "district" : "北投區", "address" : "台北市北投區承德路6段80號", "category" : "新凱汽車(VOLVO)"}}, {"type" : "Feature", "geometry" : {"type":"Point","coordinates":[121.5475088,25.0723297]}, "properties" : {"station_name" : "匯勝汽車濱江充電站", "district" : "中山區", "address" : "台北市中山區濱江街209號", "category" : "匯勝汽車(VOLVO)"}}, {"type" : "Feature", "geometry" : {"type":"Point","coordinates":[121.5640554,25.0605743]}, "properties" : {"station_name" : "家樂福台北三民店", "district" : "松山區", "address" : "台北市松山區三民路160號", "category" : "源點科技"}}, {"type" : "Feature", "geometry" : {"type":"Point","coordinates":[121.5262468,25.0934949]}, "properties" : {"station_name" : "陽明山草山小鎮", "district" : "士林區", "address" : "台北市士林區國泰街5號斜對面停車場", "category" : "源點科技"}}, {"type" : "Feature", "geometry" : {"type":"Point","coordinates":[121.5644995,25.0338352]}, "properties" : {"station_name" : "台北信義忠駝社區", "district" : "信義區", "address" : "台北市信義區基隆路一段364巷20號1樓", "category" : "源點科技"}}, {"type" : "Feature", "geometry" : {"type":"Point","coordinates":[121.5064782,25.0636874]}, "properties" : {"station_name" : "家樂福重慶店", "district" : "大同區", "address" : "台北市大同區重慶北路二段171號4F", "category" : "源點科技"}}, {"type" : "Feature", "geometry" : {"type":"Point","coordinates":[121.5374994,25.0112342]}, "properties" : {"station_name" : "台大公館超充站", "district" : "大安區", "address" : "台北市大安區羅斯福路四段1號", "category" : "源點科技"}}, {"type" : "Feature", "geometry" : {"type":"Point","coordinates":[121.5203914,25.0526256]}, "properties" : {"station_name" : "台北永盛公園地下停車場", "district" : "中山區", "address" : "台北市中山區中山北路2段93巷30號地下 ", "category" : "源點科技"}}, {"type" : "Feature", "geometry" : {"type":"Point","coordinates":[121.5203914,25.0526256]}, "properties" : {"station_name" : "台北長安國小地下停車場", "district" : "中山區", "address" : "台北市中山區吉林路15號地下 ", "category" : "源點科技"}}, {"type" : "Feature", "geometry" : {"type":"Point","coordinates":[121.5628111,25.0582615]}, "properties" : {"station_name" : "台北西松高中地下停車場", "district" : "松山區", "address" : "台北市松山區健康路325巷19弄1號地下 ", "category" : "源點科技"}}, {"type" : "Feature", "geometry" : {"type":"Point","coordinates":[121.5435546,25.0333294]}, "properties" : {"station_name" : "台北金華公園地下停車場", "district" : "大安區", "address" : "台北市大安區金華街190號地下 ", "category" : "源點科技"}}, {"type" : "Feature", "geometry" : {"type":"Point","coordinates":[121.5435546,25.0333294]}, "properties" : {"station_name" : "台北嘉興公園地下停車場", "district" : "大安區", "address" : "台北市大安區嘉興街373號地下 ", "category" : "源點科技"}}, {"type" : "Feature", "geometry" : {"type":"Point","coordinates":[121.5644995,25.0338352]}, "properties" : {"station_name" : "台北松山高中地下停車場", "district" : "信義區", "address" : "台北市信義區基隆路1段156號地下 ", "category" : "源點科技"}}, {"type" : "Feature", "geometry" : {"type":"Point","coordinates":[121.5628111,25.0582615]}, "properties" : {"station_name" : "台北松山國小地下停車場", "district" : "松山區", "address" : "台北市松山區八德路4段746號 ", "category" : "源點科技"}}, {"type" : "Feature", "geometry" : {"type":"Point","coordinates":[121.5644995,25.0338352]}, "properties" : {"station_name" : "台北忠信公園地下停車場", "district" : "信義區", "address" : "台北市信義區松仁路2號地下 ", "category" : "源點科技"}}, {"type" : "Feature", "geometry" : {"type":"Point","coordinates":[121.5644995,25.0338352]}, "properties" : {"station_name" : "台北信義廣場地下停車場", "district" : "信義區", "address" : "台北市信義區信義路5段11號地下 ", "category" : "源點科技"}}, {"type" : "Feature", "geometry" : {"type":"Point","coordinates":[121.5644995,25.0338352]}, "properties" : {"station_name" : "台北信義國小地下停車場", "district" : "信義區", "address" : "台北市信義區松勤路60號地下 ", "category" : "源點科技"}}, {"type" : "Feature", "geometry" : {"type":"Point","coordinates":[121.5697948,25.0084625]}, "properties" : {"station_name" : "台北興隆公園地下停車場", "district" : "文山區", "address" : "台北市文山區仙岩路128號地下 ", "category" : "源點科技"}}, {"type" : "Feature", "geometry" : {"type":"Point","coordinates":[121.5697948,25.0084625]}, "properties" : {"station_name" : "台北萬興國小地下停車場", "district" : "文山區", "address" : "台北市文山區秀明路2段116號地下 ", "category" : "源點科技"}}, {"type" : "Feature", "geometry" : {"type":"Point","coordinates":[121.5644995,25.0338352]}, "properties" : {"station_name" : "微風南山站", "district" : "信義區", "address" : "台北市信義區松智路17號", "category" : "源點科技"}}, {"type" : "Feature", "geometry" : {"type":"Point","coordinates":[121.5644995,25.0338352]}, "properties" : {"station_name" : "微風松高站", "district" : "信義區", "address" : "台北市信義區松高路16號", "category" : "源點科技"}}, {"type" : "Feature", "geometry" : {"type":"Point","coordinates":[121.5644995,25.0338352]}, "properties" : {"station_name" : "微風信義站", "district" : "信義區", "address" : "台北市信義區忠孝東路五段68號", "category" : "源點科技"}}, {"type" : "Feature", "geometry" : {"type":"Point","coordinates":[121.5970454,25.0710261]}, "properties" : {"station_name" : "台北禮客內湖店", "district" : "內湖區", "address" : "台北市內湖區民善街205號", "category" : "源點科技"}}, {"type" : "Feature", "geometry" : {"type":"Point","coordinates":[121.5970454,25.0710261]}, "properties" : {"station_name" : "麥當勞台北舊宗二餐廳", "district" : "內湖區", "address" : "台北市內湖區舊宗路一段189號內湖舊宗郵局旁", "category" : "源點科技"}}, {"type" : "Feature", "geometry" : {"type":"Point","coordinates":[121.5628111,25.0582615]}, "properties" : {"station_name" : "台北民生立體停車場", "district" : "松山區", "address" : "台北市松山區民生東路5段84號 ", "category" : "源點科技"}}, {"type" : "Feature", "geometry" : {"type":"Point","coordinates":[121.5298739,25.0228712]}, "properties" : {"station_name" : "台北大安高工地下停車場", "district" : "大安區", "address" : "台北市大安區信義路3段166巷6弄12 號地下 ", "category" : "源點科技"}}, {"type" : "Feature", "geometry" : {"type":"Point","coordinates":[121.5435546,25.0333294]}, "properties" : {"station_name" : "台北大安森林公園地下停車場", "district" : "大安區", "address" : "台北市大安區建國南路2段2號地下 ", "category" : "源點科技"}}, {"type" : "Feature", "geometry" : {"type":"Point","coordinates":[121.5644995,25.0338352]}, "properties" : {"station_name" : "台北五分埔公園地下停車場", "district" : "信義區", "address" : "台北市信義區中坡北路57號地下 ", "category" : "源點科技"}}, {"type" : "Feature", "geometry" : {"type":"Point","coordinates":[121.5644995,25.0338352]}, "properties" : {"station_name" : "台北興雅國中地下停車場", "district" : "信義區", "address" : "台北市信義區松德路200巷18號地下 ", "category" : "源點科技"}}, {"type" : "Feature", "geometry" : {"type":"Point","coordinates":[121.5644995,25.0338352]}, "properties" : {"station_name" : "台北松山工農地下停車場", "district" : "信義區", "address" : "台北市信義區忠孝東路5段236巷15號地下 ", "category" : "源點科技"}}, {"type" : "Feature", "geometry" : {"type":"Point","coordinates":[121.5644995,25.0338352]}, "properties" : {"station_name" : "台北臺北市災害應變中心地下停車場", "district" : "信義區", "address" : "台北市信義區莊敬路391巷11弄2號地下 ", "category" : "源點科技"}}, {"type" : "Feature", "geometry" : {"type":"Point","coordinates":[121.5970454,25.0710261]}, "properties" : {"station_name" : "台北石潭平面停車場", "district" : "內湖區", "address" : "台北市內湖區民權東路6段與成功路二段旁 ", "category" : "源點科技"}}, {"type" : "Feature", "geometry" : {"type":"Point","coordinates":[121.5970454,25.0710261]}, "properties" : {"station_name" : "台北環山平面停車場", "district" : "內湖區", "address" : "台北市內湖區環山路2段與內湖路1段411巷口 ", "category" : "源點科技"}}, {"type" : "Feature", "geometry" : {"type":"Point","coordinates":[121.617547,25.0454462]}, "properties" : {"station_name" : "台北福山平面停車場", "district" : "南港區", "address" : "台北市南港區福山街4號旁 ", "category" : "源點科技"}}, {"type" : "Feature", "geometry" : {"type":"Point","coordinates":[121.5970454,25.0710261]}, "properties" : {"station_name" : "台北文湖平面停車場", "district" : "內湖區", "address" : "台北市內湖區文湖街21巷口文湖國小旁 ", "category" : "源點科技"}}, {"type" : "Feature", "geometry" : {"type":"Point","coordinates":[121.5628111,25.0582615]}, "properties" : {"station_name" : "台北吉祥平面停車場", "district" : "松山區", "address" : "台北市松山區光復北路11巷81號旁 ", "category" : "源點科技"}}, {"type" : "Feature", "geometry" : {"type":"Point","coordinates":[121.5644995,25.0338352]}, "properties" : {"station_name" : "台北正氣橋下平面停車場", "district" : "信義區", "address" : "台北市信義區基隆路1段35巷至65號間對面 ", "category" : "源點科技"}}, {"type" : "Feature", "geometry" : {"type":"Point","coordinates":[121.520744,25.0499447]}, "properties" : {"station_name" : "台北長春路龍江路臨時平面停車場", "district" : "中山區", "address" : "台北市中山區長春路、龍江路交叉口 ", "category" : "源點科技"}}, {"type" : "Feature", "geometry" : {"type":"Point","coordinates":[121.543884,24.9980906]}, "properties" : {"station_name" : "台北三福街平面停車場", "district" : "文山區", "address" : "台北市文山區景隆街36巷內 ", "category" : "源點科技"}}, {"type" : "Feature", "geometry" : {"type":"Point","coordinates":[121.5697948,25.0084625]}, "properties" : {"station_name" : "台北保儀路平面停車場", "district" : "文山區", "address" : "台北市文山區保儀路157號對面 ", "category" : "源點科技"}}, {"type" : "Feature", "geometry" : {"type":"Point","coordinates":[121.5697948,25.0084625]}, "properties" : {"station_name" : "台北政大三街臨時平面停車場", "district" : "文山區", "address" : "台北市文山區政大三街53號旁 ", "category" : "源點科技"}}, {"type" : "Feature", "geometry" : {"type":"Point","coordinates":[121.5697948,25.0084625]}, "properties" : {"station_name" : "台北景豐臨時平面停車場", "district" : "文山區", "address" : "台北市文山區景豐街79號旁 ", "category" : "源點科技"}}, {"type" : "Feature", "geometry" : {"type":"Point","coordinates":[121.5697948,25.0084625]}, "properties" : {"station_name" : "台北樟新平面停車場", "district" : "文山區", "address" : "台北市文山區一壽街3巷與17巷之間 ", "category" : "源點科技"}}, {"type" : "Feature", "geometry" : {"type":"Point","coordinates":[121.5644995,25.0338352]}, "properties" : {"station_name" : "台北吳興街284巷臨時平面", "district" : "信義區", "address" : "台北市信義區吳興街284巷與吳興街260 巷21弄交叉口旁 ", "category" : "源點科技"}}, {"type" : "Feature", "geometry" : {"type":"Point","coordinates":[121.5644995,25.0338352]}, "properties" : {"station_name" : "台北信義路5段150巷臨時平面停車場", "district" : "信義區", "address" : "台北市信義區信義路5段150巷與信義路5段150巷342弄交叉口 ", "category" : "源點科技"}}, {"type" : "Feature", "geometry" : {"type":"Point","coordinates":[121.5970454,25.0710261]}, "properties" : {"station_name" : "台北康寧平面停車場", "district" : "內湖區", "address" : "台北市內湖區民權東路6段與康寧路2段圓環旁", "category" : "源點科技"}}, {"type" : "Feature", "geometry" : {"type":"Point","coordinates":[121.5628111,25.0582615]}, "properties" : {"station_name" : "台北光復北路平面停車場", "district" : "松山區", "address" : "台北市松山區八德路4段17巷9號", "category" : "源點科技"}}, {"type" : "Feature", "geometry" : {"type":"Point","coordinates":[121.5644995,25.0338352]}, "properties" : {"station_name" : "台北中油大樓停車場", "district" : "信義區", "address" : "台北市信義區松仁路3號", "category" : "源點科技"}}, {"type" : "Feature", "geometry" : {"type":"Point","coordinates":[121.5644995,25.0338352]}, "properties" : {"station_name" : "台北松山車站地下停車場", "district" : "信義區", "address" : "台北市信義區松山路11號南廣場地下 ", "category" : "源點科技"}}, {"type" : "Feature", "geometry" : {"type":"Point","coordinates":[121.5970454,25.0710261]}, "properties" : {"station_name" : "台北金湖臨時平面停車場", "district" : "內湖區", "address" : "台北市內湖區金湖路100號旁 ", "category" : "源點科技"}}, {"type" : "Feature", "geometry" : {"type":"Point","coordinates":[121.5970454,25.0710261]}, "properties" : {"station_name" : "台北安康公車調度站臨時平面", "district" : "內湖區", "address" : "台北市內湖區五分街12號 ", "category" : "源點科技"}}, {"type" : "Feature", "geometry" : {"type":"Point","coordinates":[121.5697948,25.0084625]}, "properties" : {"station_name" : "台北水源快速道路下平面停車場", "district" : "文山區", "address" : "台北市文山區溪州街水源快速道路下", "category" : "源點科技"}}, {"type" : "Feature", "geometry" : {"type":"Point","coordinates":[121.5443589,25.0492835]}, "properties" : {"station_name" : "中油復興北路加油站", "district" : "松山區", "address" : "台北市松山區復興北路31號", "category" : "源點科技"}}, {"type" : "Feature", "geometry" : {"type":"Point","coordinates":[121.5628111,25.0582615]}, "properties" : {"station_name" : "台北民有市場地下停車場", "district" : "松山區", "address" : "台北市松山區民權東路3段140巷15號地下 ", "category" : "源點科技"}}, {"type" : "Feature", "geometry" : {"type":"Point","coordinates":[121.5435546,25.0333294]}, "properties" : {"station_name" : "台北龍門國中地下停車場", "district" : "大安區", "address" : "台北市大安區建國南路2段269號地下 ", "category" : "源點科技"}}, {"type" : "Feature", "geometry" : {"type":"Point","coordinates":[121.5279518,25.0528439]}, "properties" : {"station_name" : "台北辛亥路高架橋下停車場", "district" : "大安區", "address" : "台北市大安區新生南路、辛亥高架橋下 ", "category" : "源點科技"}}, {"type" : "Feature", "geometry" : {"type":"Point","coordinates":[121.520744,25.0499447]}, "properties" : {"station_name" : "台北新生公園停車場", "district" : "中山區", "address" : "台北市中山區民族東路與吉林路口(新生公園溫水游泳池旁)", "category" : "源點科技"}}, {"type" : "Feature", "geometry" : {"type":"Point","coordinates":[121.5203914,25.0526256]}, "properties" : {"station_name" : "台北中山北路3段55巷停車場", "district" : "中山區", "address" : "台北市中山區中山北路3段55巷 ", "category" : "源點科技"}}, {"type" : "Feature", "geometry" : {"type":"Point","coordinates":[121.5709784,25.0816494]}, "properties" : {"station_name" : "台北五常街臨時平面停車場", "district" : "中山區", "address" : "台北市中山區五常街與民權東路3段39 巷口 ", "category" : "源點科技"}}, {"type" : "Feature", "geometry" : {"type":"Point","coordinates":[121.5644995,25.0338352]}, "properties" : {"station_name" : "台北松德臨時平面停車場", "district" : "信義區", "address" : "台北市信義區松德路底(中強公園旁) ", "category" : "源點科技"}}, {"type" : "Feature", "geometry" : {"type":"Point","coordinates":[121.5748268,24.9994912]}, "properties" : {"station_name" : "台北和平東路4段381巷平面停車場", "district" : "文山區", "address" : "台北市文山區和平東路4段381巷內 ", "category" : "源點科技"}}, {"type" : "Feature", "geometry" : {"type":"Point","coordinates":[121.5697948,25.0084625]}, "properties" : {"station_name" : "台北興隆市場旁停車場", "district" : "文山區", "address" : "台北市文山區興隆路2段97號旁 ", "category" : "源點科技"}}, {"type" : "Feature", "geometry" : {"type":"Point","coordinates":[121.5697948,25.0084625]}, "properties" : {"station_name" : "台北萬芳八號公園停車場", "district" : "文山區", "address" : "台北市文山區公務員訓練中心旁 ", "category" : "源點科技"}}, {"type" : "Feature", "geometry" : {"type":"Point","coordinates":[121.5324419,25.0556795]}, "properties" : {"station_name" : "台北長春路平面停車場", "district" : "中山區", "address" : "台北市中山區松江路160巷5-5號旁", "category" : "源點科技"}}, {"type" : "Feature", "geometry" : {"type":"Point","coordinates":[121.520744,25.0499447]}, "properties" : {"station_name" : "台北龍江平面停車場", "district" : "中山區", "address" : "台北市中山區遼寧街、龍江路155巷口", "category" : "源點科技"}}, {"type" : "Feature", "geometry" : {"type":"Point","coordinates":[121.5927274,25.0498787]}, "properties" : {"station_name" : "台北南港軟體園區二期南站", "district" : "南港區", "address" : "台北市南港區新民街興東街口南側廣場(H棟大樓側)", "category" : "源點科技"}}, {"type" : "Feature", "geometry" : {"type":"Point","coordinates":[121.5927274,25.0498787]}, "properties" : {"station_name" : "台北南港軟體園區二期北站", "district" : "南港區", "address" : "台北市南港區園區街58巷北側廣場(F棟大樓側)", "category" : "源點科技"}}, {"type" : "Feature", "geometry" : {"type":"Point","coordinates":[121.5970454,25.0710261]}, "properties" : {"station_name" : "台北內湖堤頂大道超級綠洲", "district" : "內湖區", "address" : "台北市內湖區堤頂大道二段與瑞光路316巷口", "category" : "源點科技"}}, {"type" : "Feature", "geometry" : {"type":"Point","coordinates":[121.5021805,25.1016479]}, "properties" : {"station_name" : "洲美運動公園地下停車場", "district" : "北投區", "address" : "台北市北投區洲美街271號", "category" : "源點科技"}}, {"type" : "Feature", "geometry" : {"type":"Point","coordinates":[121.5697948,25.0084625]}, "properties" : {"station_name" : "台北景文平面停車場", "district" : "文山區", "address" : "台北市文山區景文街90巷內廣場停車場 ", "category" : "源點科技"}}, {"type" : "Feature", "geometry" : {"type":"Point","coordinates":[121.4985934,25.1319307]}, "properties" : {"station_name" : "北投大度路超級綠洲", "district" : "北投區", "address" : "台北市北投區大度路三段慈濟大愛電視台斜對面", "category" : "源點科技"}}, {"type" : "Feature", "geometry" : {"type":"Point","coordinates":[121.5203914,25.0526256]}, "properties" : {"station_name" : "台北新生高架橋下(民族-農安段)停車場", "district" : "中山區", "address" : "台北市中山區新生北路三段75號前高架下入口", "category" : "源點科技"}}, {"type" : "Feature", "geometry" : {"type":"Point","coordinates":[121.5970454,25.0710261]}, "properties" : {"station_name" : "奧迪北區股份有限公司", "district" : "內湖區", "address" : "台北市內湖區行忠路178巷2號", "category" : "奧迪福斯汽車"}}, {"type" : "Feature", "geometry" : {"type":"Point","coordinates":[121.6032255,25.0540124]}, "properties" : {"station_name" : "奧迪北區股份有限公司", "district" : "南港區", "address" : "台北市南港區南港路二段155號", "category" : "奧迪福斯汽車"}}, {"type" : "Feature", "geometry" : {"type":"Point","coordinates":[121.5064782,25.0636874]}, "properties" : {"station_name" : "京站時尚廣場附屬停車場", "district" : "大同區", "address" : "台北市大同區承德路一段一號B5樓", "category" : "裕電?電"}}, {"type" : "Feature", "geometry" : {"type":"Point","coordinates":[121.5970454,25.0710261]}, "properties" : {"station_name" : "順益汽車股份有限公司(內湖營業所)", "district" : "內湖區", "address" : "台北市內湖區民權東路六段13-15號", "category" : "裕電?電"}}, {"type" : "Feature", "geometry" : {"type":"Point","coordinates":[121.5644995,25.0338352]}, "properties" : {"station_name" : "YES 松菸文創", "district" : "信義區", "address" : "台北市信義區菸廠路88號B4", "category" : "裕電?電"}}, {"type" : "Feature", "geometry" : {"type":"Point","coordinates":[121.5126435,25.04977]}, "properties" : {"station_name" : "保證責任台北市台北地下街場地利用合作社", "district" : "大同區", "address" : "台北市大同區鄭州路115號", "category" : "裕電?電"}}, {"type" : "Feature", "geometry" : {"type":"Point","coordinates":[121.5321852,25.0634612]}, "properties" : {"station_name" : "亞都麗緻大飯店股份有限公司", "district" : "中山區", "address" : "台北市中山區民權東路二段41號", "category" : "裕電?電"}}, {"type" : "Feature", "geometry" : {"type":"Point","coordinates":[121.5264162,25.0457196]}, "properties" : {"station_name" : "YES匯泰大樓華山站", "district" : "中正區", "address" : "臺北市中正區北平東路30-1號", "category" : "裕電?電"}}, {"type" : "Feature", "geometry" : {"type":"Point","coordinates":[121.5277397,25.0561626]}, "properties" : {"station_name" : "YES欣欣百貨", "district" : "中山區", "address" : "臺北市中山區新生北路二段28巷1號", "category" : "裕電?電"}}, {"type" : "Feature", "geometry" : {"type":"Point","coordinates":[121.5262468,25.0934949]}, "properties" : {"station_name" : "台北福林站", "district" : "士林區", "address" : "台北市士林區中山北路五段465號旁", "category" : "TAIL 特爾電力"}}, {"type" : "Feature", "geometry" : {"type":"Point","coordinates":[121.555343,25.0792411]}, "properties" : {"station_name" : "大直美麗華站", "district" : "中山區", "address" : "台北市中山區敬業三路20號", "category" : "TAIL 特爾電力"}}, {"type" : "Feature", "geometry" : {"type":"Point","coordinates":[121.6165565,25.0518967]}, "properties" : {"station_name" : "南港研究院路站", "district" : "南港區", "address" : "台北市南港區研究院路一段101巷16弄8號", "category" : "TAIL 特爾電力"}}, {"type" : "Feature", "geometry" : {"type":"Point","coordinates":[121.5262468,25.0934949]}, "properties" : {"station_name" : "士林瑋信捷豹路虎快充站", "district" : "士林區", "address" : "台北市士林區中正路418號", "category" : "TAIL 特爾電力"}}, {"type" : "Feature", "geometry" : {"type":"Point","coordinates":[121.5268314,25.0195773]}, "properties" : {"station_name" : "自來水公館慢充站", "district" : "中正區", "address" : "台北市中正區汀洲路三段230巷15號", "category" : "TAIL 特爾電力"}}, {"type" : "Feature", "geometry" : {"type":"Point","coordinates":[121.5268314,25.0195773]}, "properties" : {"station_name" : "自來水水源慢充站", "district" : "中正區", "address" : "台北市中正區汀洲路三段104巷", "category" : "TAIL 特爾電力"}}, {"type" : "Feature", "geometry" : {"type":"Point","coordinates":[121.5275341,25.0876963]}, "properties" : {"station_name" : "台北士林萬麗酒店", "district" : "士林區", "address" : "台北市士林區中山北路五段470巷8號", "category" : "普立斯國際開發"}}, {"type" : "Feature", "geometry" : {"type":"Point","coordinates":[121.5762512,25.0621286]}, "properties" : {"station_name" : "IKEA 宜家家居 內湖店", "district" : "內湖區", "address" : "台北市內湖區舊宗路一段128號", "category" : "宜家家居"}}, {"type" : "Feature", "geometry" : {"type":"Point","coordinates":[121.5424692,25.0413387]}, "properties" : {"station_name" : "遠東SOGO台北復興館", "district" : "大安區", "address" : "台北市大安區忠孝東路三段300號", "category" : "遠傳電信"}}, {"type" : "Feature", "geometry" : {"type":"Point","coordinates":[121.5234114,25.1075866]}, "properties" : {"station_name" : "遠東SOGO天母館", "district" : "士林區", "address" : "台北市士林區中山北路六段77號", "category" : "遠傳電信"}}, {"type" : "Feature", "geometry" : {"type":"Point","coordinates":[121.5529941,25.0420216]}, "properties" : {"station_name" : "遠東SOGO忠孝館", "district" : "大安區", "address" : "台北市大安區忠孝東路四段45號", "category" : "遠傳電信"}}, {"type" : "Feature", "geometry" : {"type":"Point","coordinates":[121.5644995,25.0338352]}, "properties" : {"station_name" : "大遠百A13", "district" : "信義區", "address" : "台北市信義區松仁路58號", "category" : "遠傳電信"}}, {"type" : "Feature", "geometry" : {"type":"Point","coordinates":[121.5501633,25.0309492]}, "properties" : {"station_name" : "遠企中心", "district" : "大安區", "address" : "台北市大安區敦化南路二段207號", "category" : "遠傳電信"}}, {"type" : "Feature", "geometry" : {"type":"Point","coordinates":[121.5970454,25.0710261]}, "properties" : {"station_name" : "U-POWER 內湖行忠站", "district" : "內湖區", "address" : "台北市內湖區行忠路65號", "category" : "旭電馳科研"}}, {"type" : "Feature", "geometry" : {"type":"Point","coordinates":[121.4715357,25.124069]}, "properties" : {"station_name" : "U-POWER 臺北北投立德站", "district" : "北投區", "address" : "臺北市北投區立德路2號", "category" : "旭電馳科研"}}, {"type" : "Feature", "geometry" : {"type":"Point","coordinates":[121.5889983,25.069664]}, "properties" : {"station_name" : "U-POWER 臺北內湖行忠站", "district" : "內湖區", "address" : "臺北市內湖區新湖二路與民善街口(新湖一路141號對面停車場(含電動車充電樁))", "category" : "旭電馳科研"}}, {"type" : "Feature", "geometry" : {"type":"Point","coordinates":[121.570458,24.989786]}, "properties" : {"station_name" : "U-POWER 臺北文山木柵站", "district" : "文山區", "address" : "臺北市文山區木柵路四段111巷捷運站對面", "category" : "旭電馳科研"}}, {"type" : "Feature", "geometry" : {"type":"Point","coordinates":[121.5277511,25.0361232]}, "properties" : {"station_name" : "U-POWER 臺北仁愛金山南站", "district" : "中正區", "address" : "臺北市中正區金山南路一段67巷12號", "category" : "旭電馳科研"}}, {"type" : "Feature", "geometry" : {"type":"Point","coordinates":[121.5564066,25.0521594]}, "properties" : {"station_name" : "台北小巨蛋地下停車場", "district" : "松山區", "address" : "台北市松山區南京東路四段2號", "category" : "中興電工"}}, {"type" : "Feature", "geometry" : {"type":"Point","coordinates":[121.61973,25.0586]}, "properties" : {"station_name" : "南港展覽館2館", "district" : "南港區", "address" : "台北市南港區經貿二路2號", "category" : "中興電工"}}, {"type" : "Feature", "geometry" : {"type":"Point","coordinates":[121.5050977,25.0332513]}, "properties" : {"station_name" : "昆明地下停車場(亞曼尼大樓)", "district" : "萬華區", "address" : "台北市萬華區昆明街46號B1", "category" : "中興電工"}}, {"type" : "Feature", "geometry" : {"type":"Point","coordinates":[121.5970454,25.0710261]}, "properties" : {"station_name" : "內湖污水處理廠附屬公園停車場", "district" : "內湖區", "address" : "台北市內湖區舊宗路二段2號汙水廠旁停車場", "category" : "中興電工"}}, {"type" : "Feature", "geometry" : {"type":"Point","coordinates":[121.5203914,25.0526256]}, "properties" : {"station_name" : "新生高架(錦州街-民權東路)停車場", "district" : "中山區", "address" : "台北市中山區新生北路二段144號對面停車場", "category" : "中興電工"}}, {"type" : "Feature", "geometry" : {"type":"Point","coordinates":[121.5203914,25.0526256]}, "properties" : {"station_name" : "新生高架(南京東路-長安東路)停車場", "district" : "中山區", "address" : "台北市中山區新生北路一段122號對面停車場", "category" : "中興電工"}}, {"type" : "Feature", "geometry" : {"type":"Point","coordinates":[121.5203914,25.0526256]}, "properties" : {"station_name" : "富邦人壽保險股份有限公司", "district" : "中山區", "address" : "台北市中山區遼寧街177號B1及B4至B6停車場", "category" : "中興電工"}}, {"type" : "Feature", "geometry" : {"type":"Point","coordinates":[121.5970454,25.0710261]}, "properties" : {"station_name" : "永固便利(港墘站)停車場", "district" : "內湖區", "address" : "台北市內湖區內湖路一段596號旁停車場", "category" : "中興電工"}}, {"type" : "Feature", "geometry" : {"type":"Point","coordinates":[121.5262468,25.0934949]}, "properties" : {"station_name" : "台北至善站", "district" : "士林區", "address" : "台北市士林區至善路1段雙溪公園斜對面", "category" : "台泥儲能"}}, {"type" : "Feature", "geometry" : {"type":"Point","coordinates":[121.518841,25.0461804]}, "properties" : {"station_name" : "台北市新光摩天大樓B3停車場", "district" : "中正區", "address" : "台北市中正區忠孝西路一段66號", "category" : "星舟快充"}}, {"type" : "Feature", "geometry" : {"type":"Point","coordinates":[121.5262468,25.0934949]}, "properties" : {"station_name" : "泓德總部", "district" : "士林區", "address" : "台北市士林區德行西路35號B1", "category" : "星舟快充"}}, {"type" : "Feature", "geometry" : {"type":"Point","coordinates":[121.5262468,25.0934949]}, "properties" : {"station_name" : "天母傑仕堡站", "district" : "士林區", "address" : "台北市士林區忠誠路二段180號B1", "category" : "星舟快充"}}, {"type" : "Feature", "geometry" : {"type":"Point","coordinates":[121.520744,25.0499447]}, "properties" : {"station_name" : "大直NOKE忠泰樂生活", "district" : "中山區", "address" : "台北市中山區樂群三路200號 (B1、B2)", "category" : "星舟快充"}}, {"type" : "Feature", "geometry" : {"type":"Point","coordinates":[121.5970454,25.0710261]}, "properties" : {"station_name" : "恰吉先生充電站", "district" : "內湖區", "address" : "台北市內湖區蘆洲里安美街123號1樓", "category" : "Mr.Charger 恰吉先生"}}, {"type" : "Feature", "geometry" : {"type":"Point","coordinates":[121.5262468,25.0934949]}, "properties" : {"station_name" : "台北市士林區Lexus士林營業所", "district" : "士林區", "address" : "台北市士林區中正路350號", "category" : "和潤電能(充壩技術)"}}, {"type" : "Feature", "geometry" : {"type":"Point","coordinates":[121.5644995,25.0338352]}, "properties" : {"station_name" : "台北市信義區松高路19號", "district" : "信義區", "address" : "台北市信義區松高路19號", "category" : "和潤電能"}}, {"type" : "Feature", "geometry" : {"type":"Point","coordinates":[121.5671056,25.0361422]}, "properties" : {"station_name" : "台北市信義區松壽路11號", "district" : "信義區", "address" : "台北市信義區松壽路11號", "category" : "和潤電能"}}, {"type" : "Feature", "geometry" : {"type":"Point","coordinates":[121.5644995,25.0338352]}, "properties" : {"station_name" : "台北市信義區松高路12號", "district" : "信義區", "address" : "台北市信義區松高路12號", "category" : "和潤電能"}}, {"type" : "Feature", "geometry" : {"type":"Point","coordinates":[121.5320853,25.116069]}, "properties" : {"station_name" : "台北市士林區忠誠路二段200號", "district" : "士林區", "address" : "台北市士林區忠誠路二段200號", "category" : "和潤電能"}}, {"type" : "Feature", "geometry" : {"type":"Point","coordinates":[121.5203914,25.0526256]}, "properties" : {"station_name" : "台北市中山區南京西路12號", "district" : "中山區", "address" : "台北市中山區南京西路12號", "category" : "和潤電能"}}, {"type" : "Feature", "geometry" : {"type":"Point","coordinates":[121.5125184,25.079618]}, "properties" : {"station_name" : "全國台北交流道加油站", "district" : "士林區", "address" : "台北市士林區重慶北路四段141號", "category" : "全國加油站"}}, {"type" : "Feature", "geometry" : {"type":"Point","coordinates":[121.5970454,25.0710261]}, "properties" : {"station_name" : "全國港墘路加油站", "district" : "內湖區", "address" : "台北市內湖區港墘路250號", "category" : "全國加油站"}}]}
